id,approved,title,type,inep,cnpj,lat,lng,address_street,address_number,address_neighborhood,address_city,address_state,address_postal_code,address_telephone,uri,description,owner_name,owner_email
1001,1,"CEEJA CEEJA DE LINHARES","estadual","32021798","12345678-0341",-19.3951288,-40.0646549,"RUA MONSENHOR PEDRINHA","S/N","CENTRO","LINHARES","ES","29900160","-27","","","nome_teste","CENTROLINHARES@SEDU.ES.GOV.BR"
1002,1,"CEEJA DE CACHOEIRO DE ITAPEMIRIM","estadual","32052081","12345678-0062",-20.8537524,-41.1054083,"RUA MOREIRA","215","CORONEL BORGES","CACHOEIRO DE ITAPEMIRIM","ES","29306320","()","","","nome_teste","email@email.com"
1003,1,"CEEJA DE VITORIA","estadual","32039972","12345678-0172",-20.2984850,-40.3693901,"RUA SAO BENTO","66","CENTRO","VITORIA","ES","29016290","(27)32236429","","","nome_teste","ESCOLAVITORIA@SEDU.ES.GOV.BR"
1004,1,"CEEJA PEDRO ANTONIO VITALI","estadual","32010303","12345678-0259",-19.5146429,-40.6752853,"AVENIDA PEDRO VITALI","209","CENTRO","COLATINA","ES","29707150","(27)37214868","","","nome_teste","CENTROPEDROVITALI@SEDU.ES.GOV.BR"
1005,1,"CEET TALMO LUIZ SILVA","estadual","32080204","12345678-0339",-19.7581899,-40.3862792,"RUA PADRE ANCHIETA","250","VILA NOVA DE CIMA","JOAO NEIVA","ES","29680000","(27)32583874/32582022","","","nome_teste","ESCOLATALMOLUIZ@SEDU.ES.GOV.BR"
1006,1,"CEET VASCO COUTINHO","estadual","32038569","12345678-0472",-20.3477821,-40.2949528,"RUA LUCIANO DAS NEVES","","CENTRO","VILA VELHA","ES","29100200","(27)32294655/33296923","","","nome_teste","VASCOCOUTINHO@SECTTI.ES.GOV.BR"
1007,1,"EE CENTRO DE APOIO PEDAGOGICO AO DEFICIENTE VISUAL","estadual","32079117","12345678-0173",-20.3562562,-40.3702858,"AVENIDA LEITAO DA SILVA","","PRAIA DO SUA","VITORIA","ES","29052111","()","","","nome_teste","email@email.com"
1008,1,"EE COMUNITARIA RURAL DE COLATINA","estadual","32079958","12345678-0260",-19.5146429,-40.6752853,"RUA EUCLIDES PRETTI","","RETA GRANDE","COLATINA","ES","29719430","(27)37433172","","","nome_teste","ESCOLACOLATINA@SEDU.ES.GOV.BR"
1009,1,"EE EEE AUDITIVA LIONS PROF. NAPOLEÃO ALBUQUERQUE","estadual","32052928","12345678-0063",-20.8423173,-41.1151406,"RUA DR. DEOLINDO","198","BAIMINAS","CACHOEIRO DE ITAPEMIRIM","ES","29305440","()","","","nome_teste","email@email.com"
1010,1,"EE NAAHS - NUCLEO DE ATIVIDADES DE ALTAS HAB/SUPERDOTAÇÃO","estadual","32080611","12345678-0174",-20.3554449,-40.3804167,"AVENIDA LEITAO DA SILVA","","PRAIA DO SUA","VITORIA","ES","29052111","()","","","nome_teste","email@email.com"
1011,1,"EEE OR AUD EEE ORAL E AUDITIVA","estadual","32040873","12345678-0175",-20.3312886,-40.4282520,"AVENIDA DARIO LOURENÇO DE SOUZA","752","SANTO ANTONIO","VITORIA","ES","29026080","(27)33222315","","","nome_teste","ESCOLAORALAUDITIVA@SEDU.ES.GOV.BR"
1012,1,"EEE OR AUD PROFESSORA ALECIA FERREIRA COUTO","estadual","32038607","12345678-0473",-20.3366565,-40.2818722,"RUA SANTA LUZIA","S/N","PRAIA DA COSTA","VILA VELHA","ES","29101040","()33890515","","","nome_teste","ESCOLAALECIACOUTO@SEDU.ES.GOV"
1013,1,"EEEF ALEGRE","estadual","32022999","12345678-0359",-20.3366565,-40.2818722,"RUA BR 101 KM 126 CORREGO ALEGRE","","CORREGO ALEGRE","SOORETAMA","ES","29927000","-27","","","nome_teste","ESCOLALEGRE@SEDU.ES.GOV.BR"
1014,1,"EEEF ANTONIO CARNEIRO RIBEIRO","estadual","32046901","12345678-0312",-18.7128584,-40.3984936,"RUA JOSE VIEIRA DE SOUZA","","QUINCAS MACHADO","GUACUI","ES","29560000","(28)35532210","","","nome_teste","ESCOLAANTONIORIBEIRO@SEDU.ES.GOV.BR"
1015,1,"EEEF ANTONIO ESTEVES","estadual","32034563","12345678-0191",-20.3079452,-40.3675598,"RUA MONTE CASTELO","","VERA CRUZ","CARIACICA","ES","29146759","(27)33369976","","","nome_teste","ESCOLAANTONIOESTEVES@SEDU.ES.GOV.BR"
1016,1,"EEEF AUTO GUIMARAES E SOUZA","estadual","32021925","12345678-0342",-18.7327833,-39.7580377,"AVENIDA ARACRUZ","153","SHELL","LINHARES","ES","29901520","(27)33711679","","","nome_teste","ESCOLAALTOGUIMARAES@SEDU.ES.GOV.BR"
1017,1,"EEEF BAIRRO BOA VISTA","estadual","32007787","12345678-0399",-19.0062124,-40.5379890,"RUA FRANCISCO NEVES","24","BOA VISTA","SAO GABRIEL DA PALHA","ES","29780000","(27)37273139","","","nome_teste","ESCOLABAIRROBOAVISTA@SEDU.ES.GOV.BR"
1018,1,"EEEF BARAO DO RIO BRANCO","estadual","32038887","12345678-0474",-20.3395591,-40.3360115,"RUA SEBASTIAO","100","VILA GARRIDO","VILA VELHA","ES","29116280","(27)33261283","","","nome_teste","ESCOLABARAODORIO@SEDU.ES.GOV.BR"
1019,1,"EEEF BRASIL","estadual","32009380","12345678-0254",-19.5119294,-41.0208338,"RUA DUQUE DE CAXIAS","","CENTRO","BAIXO GUANDU","ES","29730000","(27)37322028","","","nome_teste","ESCOLABRASIL@SEDU.ES.GOV.BR"
1020,1,"EEEF CAMPINHO","estadual","32035390","12345678-0127",-20.1480439,-40.2637947,"RUA PINGO DE OURO","500","CAMPINHO DA SERRA I","SERRA","ES","29178029","(27)32514110","","","nome_teste","ESCOLACAMPINHO@SEDU.ES.GOV.BR"
1021,1,"EEEF CARAPEBUS","estadual","32036094","12345678-0128",-20.1520413,-40.2656595,"RUA CORONEL EDGAR","S/N","PRAIA DE CARAPEBUS","SERRA","ES","29164630","(27)33381155","","","nome_teste","ESCOLACARAPEBUS@SEDU.ES.GOV.BR"
1022,1,"EEEF CAROLINA PASSOS GAIGHER","estadual","32052243","12345678-0064",-20.8434226,-41.1107037,"RUA JOSE REBELLO","50","SANTA HELENA","CACHOEIRO DE ITAPEMIRIM","ES","29307158","(28)35112315","","","nome_teste","ESCOLACAROLINAGAIGHE@SEDU.ES.GOV.BR"
1023,1,"EEEF CASTELO BRANCO","estadual","32034458","12345678-0193",-20.3289496,-40.3915998,"RUA MARIANO FIRME","77","BANDEIRANTES","CARIACICA","ES","29142008","()","","","nome_teste","ESCOLACASTELOB@SEDU.ES.GOV.BR"
1024,1,"EEEF CELESTINO DE ALMEIDA","estadual","32034580","12345678-0194",-20.2643105,-40.4203022,"RUA BLUMENAU","","BELA VISTA","CARIACICA","ES","29142296","(27)33264899","","","nome_teste","ESCOLACELESTINO@SEDU.ES.GOV.BR"
1025,1,"EEEF CELITA BASTOS GARCIA","estadual","32043503","12345678-0459",-20.6712084,-40.5133438,"PRACA CENTRAL DE UNA","","UNA","GUARAPARI","ES","29222540","(27)32621431/98889587","","","nome_teste","ESCOLACELITABASTOS@SEDU.ES.GOV.BR"
1026,1,"EEEF CLUBE DO BOSQUE","estadual","32052260","12345678-0065",-20.8616614,-41.1060005,"RUA JORGE MARCONDES DE SOUZA","12","PRESIDENTE ARTHUR DA COSTA E SILVA","CACHOEIRO DE ITAPEMIRIM","ES","29305811","(28)35217304","","","nome_teste","CLUBEDOBOSQUE@SEDU.ES.GOV.BR"
1027,1,"EEEF CORAMARA","estadual","32052294","12345678-0066",-20.8332399,-41.1486231,"AVENIDA JORGE SIMAO","27","CORAMARA","CACHOEIRO DE ITAPEMIRIM","ES","29313367","()35214384","","","nome_teste","ESCOLACORAMARA@SEDU.ES.GOV.BR"
1028,1,"EEEF COTAXE","estadual","32003498","12345678-0051",-20.8428814,-41.1171134,"RUA SANTA CRUZ","31","COTAXE","ECOPORANGA","ES","29855000","(27)37555142","","","nome_teste","ESCOLACOTAXE@SEDU.ES.GOV.BR"
1029,1,"EEEF DANIEL COMBONI","estadual","32002939","12345678-0052",-20.8377513,-41.1114311,"RUA JOAQUIM DE SOUZA LIMA","260","NOSSA SRA APARECIDA","ECOPORANGA","ES","29850000","-27","","","nome_teste","ESCOLADCOMBONI@SEDU.ES.GOV.BR"
1030,1,"EEEF DANTE MICHELINI","estadual","32039697","12345678-0475",-20.3522482,-40.3411731,"RUA RONALDO GONCALVES DE REZENDE","","PLANALTO","VILA VELHA","ES","29118410","-27","","","nome_teste","ESCOLADANTEMICHELINI@SEDU.ES.GOV.BR"
1031,1,"EEEF DESEMBARGADOR CÂNDIDO MARINHO","estadual","32038305","12345678-0476",-20.3483776,-40.3090260,"AVENIDA SALGADO FILHO","","SOTECO","VILA VELHA","ES","29106010","()33395519","","","nome_teste","ESCOLACANDIDOMARINHO@SEDU.ES.GOV.BR"
1032,1,"EEEF DOMINGOS JOSÉ MARTINS - VILA VELHA","estadual","32039700","12345678-0477",-20.3455657,-40.3477170,"RUA CAPRICORNIO","100","ALVORADA","VILA VELHA","ES","29117340","-27","","","nome_teste","ESCOLADOMINGOS@SEDU.ES.GOV.BR"
1033,1,"EEEF DOMINGOS PERIM","estadual","32030142","12345678-0029",-18.7510499,-40.8943438,"RUA LA VILLE","134","TRINTA DE DEZEMBRO","VENDA NOVA DO IMIGRANTE","ES","29375000","(28)35462517","","","nome_teste","ESCOLADOMINGOSPERIM@SEDU.ES.GOV.BR"
1034,1,"EEEF DONA MARIA SANTANA","estadual","32052278","12345678-0068",-20.8467577,-41.1258295,"RUA JACINTO PASTRO","14","BASILEIA","CACHOEIRO DE ITAPEMIRIM","ES","29302848","(28)35119892","","","nome_teste","ESCOLADONAMARIA@SEDU.ES.GOV.BR"
1035,1,"EEEF DR ARISTIDES ALEXANDRE CAMPOS","estadual","32052227","12345678-0069",-20.8467047,-41.1202199,"AVENIDA MONTE CASTELO","","INDEPENDENCIA","CACHOEIRO DE ITAPEMIRIM","ES","29306505","(28)35111923","","","nome_teste","ESCOLADRARISTIDES@SEDU.ES.GOV.BR"
1036,1,"EEEF DR EDWARD ABREU DO NASCIMENTO","estadual","32017243","12345678-0437",-18.3008985,-39.9577395,"RUA DR EDWARD ABREU DO NASCIMENTO","","NOVO HORIZONTE","PEDRO CANARIO","ES","29970000","()37642320","","","nome_teste","ESCOLAEDWARD@SEDU.ES.GOV.BR"
1037,1,"EEEF DR EMILIO ROBERTO ZANOTTI","estadual","32017995","12345678-0443",-18.7203586,-39.8600346,"RUA RAIMUNDO GUILHERME SOBRINHO","","CENTRO","SAO MATEUS","ES","29930050","(27)37631158","","","nome_teste","ESCOLAEMILIOROBERTO@SEDU.ES.GOV.BR"
1038,1,"EEEF DR MOACIR AVIDOS","estadual","32011709","12345678-0270",-19.2333769,-40.5153935,"RODOVIA DÁRIO SALVADOR","","CORREGO MOACIR","GOVERNADOR LINDENBERG","ES","29720000","(27)37441172","","","nome_teste","ESCOLAMOACIRAVIDOS@SEDU.ES.GOV.BR"
1039,1,"EEEF DR SOUZA ARAUJO","estadual","32033753","12345678-0195",-20.3477033,-40.3852789,"RUA PRINCIPAL","","PORTO BELO I","CARIACICA","ES","29156000","()32843120","","","nome_teste","ESCOLASOUZAARAUJO@SEDU.ES.GOV.BR"
1040,1,"EEEF EGIDIO BORDONI","estadual","32018045","12345678-0444",-18.7191438,-39.8567437,"RODOVIA BR-101 NORTE","","MORADA DE RIBEIRAO","SAO MATEUS","ES","29936450","(27)99742650","","","nome_teste","email@email.com"
1041,1,"EEEF ELISEU LOFEGO","estadual","32052286","12345678-0070",-20.8410224,-41.1254518,"RUA MATEUS","","RUI PINTO BANDEIRA","CACHOEIRO DE ITAPEMIRIM","ES","29315802","(28)35215272","","","nome_teste","ESCOLAELIZEULOFEGO@SEDU.ES.GOV.BR"
1042,1,"EEEF FRANCELINA CARNEIRO SETUBAL","estadual","32038496","12345678-0478",-20.3548815,-40.2945066,"AVENIDA LEOPOLDINA","100","PRAIA DE ITAPARICA","VILA VELHA","ES","29102040","(27)33392183","","","nome_teste","ESCOLAFRANCELINA@SEDU.ES.GOV.BR"
1043,1,"EEEF FRANCISCO ALVES MENDES","estadual","32070853","12345678-0129",-20.1234387,-40.2765119,"AVENIDA HO SHI MIN","","CIDADE CONTINENTAL-SETOR ASIA","SERRA","ES","29163610","-27","","","nome_teste","ESCOLAFRANCISCOALVES@SEDU.ES.GOV.BR"
1044,1,"EEEF GALDINO ANTONIO VIEIRA","estadual","32039727","12345678-0479",-20.3445421,-40.3332113,"RUA PAULO NEVES","","SANTA RITA","VILA VELHA","ES","29118590","-27","","","nome_teste","ESCOLAGALDINO@SEDU.ES.GOV.BR"
1045,1,"EEEF GENERAL TIBURCIO","estadual","32033800","12345678-0196",-20.3464571,-40.3651323,"RUA GABINO RIOS","","PORTO DE SANTANA","CARIACICA","ES","29153010","(27)33435836","","","nome_teste","ESCOLATIBURCIO@SEDU.ES.GOV.BR"
1046,1,"EEEF GERMANO ANDRE LUBE","estadual","32037171","12345678-0130",-20.1844915,-40.2690603,"RUA GOITACASES","","DAS LARANJEIRAS","SERRA","ES","29175597","(27)32523492","","","nome_teste","ESCOLAGERMANOANDRE@SEDU.ES.GOV"
1047,1,"EEEF GLADISTON REGIS BARBOSA","estadual","32034610","12345678-0197",-20.2719319,-40.3964653,"RUA A","38","JARDIM BOTANICO","CARIACICA","ES","29142745","()33263211","","","nome_teste","ESCOLAGLADISTON@SEDU.ES.GOV.BR"
1048,1,"EEEF INAH WERNECK","estadual","32052340","12345678-0072",-20.6031279,-41.2051740,"RUA CARIRI","","AQUIDABAN","CACHOEIRO DE ITAPEMIRIM","ES","29308210","(28)35119889","","","nome_teste","email@email.com"
1049,1,"EEEF ITAOCA","estadual","32060475","12345678-0101",-20.1794416,-40.2589904,"AVENIDA ITAPEMIRIM","2100","ITAOCA","ITAPEMIRIM","ES","29330000","()35291003","","","nome_teste","ESCOLAITAOCA@SEDU.ES.GOV.BR"
1050,1,"EEEF JONES JOSE DO NASCIMENTO","estadual","32036167","12345678-0131",-20.1748722,-40.2431489,"RUA DISTRITO FEDERAL","3","CENTRAL DE CARAPINA","SERRA","ES","29161567","()33289100","","","nome_teste","ESCOLAJONESJOSE@SEDU.ES.GOV.BR"
1051,1,"EEEF JOSE DE CALDAS BRITO","estadual","32022050","12345678-0343",-18.7158919,-39.8566338,"RUA JOSE MARIA","","ARACA","LINHARES","ES","29901455","(27)33713343","","","nome_teste","ESCOLAJOSECALDAS@SEDU.ES.GOV.BR"
1052,1,"EEEF JOSE MARIA FERREIRA","estadual","32034687","12345678-0198",-20.2643105,-40.4203022,"RUA CACHOEIRO DO ITAPEMIRIM","173","NOVA BRASILIA","CARIACICA","ES","29149510","(27)33431984","","","nome_teste","ESCOLAJOSEMARIA@SEDU.ES.GOV.BR"
1053,1,"EEEF JOSE RODRIGUES COUTINHO","estadual","32033826","12345678-0199",-20.2643105,-40.4203022,"ESTRADA CANGAIBA","S/N","SANTO ANTONIO","CARIACICA","ES","29156840","-27","","","nome_teste","ESCOLAJOSECOUTINHO@SEDU.ES.GOV.BR"
1054,1,"EEEF JOSE TAVEIRA DOS SANTOS","estadual","32052375","12345678-0073",-20.7896269,-40.8139739,"RUA OLGA CONTARINI","","ABELARDO FERREIRA MACHADO","CACHOEIRO DE ITAPEMIRIM","ES","29309257","(28)35218196","","","nome_teste","ESCOLAJOSETAVEIRA@SEDU.ES.GOV.BR"
1055,1,"EEEF JUDITH LEAO CASTELLO RIBEIRO","estadual","32036175","12345678-0132",-20.2187479,-40.2276788,"RUA MIGUEL JOSÉ","","PITANGA","SERRA","ES","29169830","(27)33414755","","","nome_teste","ESCOLAJUDITHLEAO@SEDU.GOV.BR"
1056,1,"EEEF LIBERAL ZANDONADI","estadual","32030150","12345678-0030",-20.3238182,-41.1351878,"RUA DOM JOAO BATISTA","51","VILA BETANIA","VENDA NOVA DO IMIGRANTE","ES","29375000","-28","","","nome_teste","ESCOLALIBERAL@SEDU.ES.GOV.BR"
1057,1,"EEEF LUIZ DE CAMÕES","estadual","32022069","12345678-0344",-19.3798635,-40.0691476,"AVENIDA CELESTE FAE","1218","NOSSA SENHORA DA CONCEICAO","LINHARES","ES","29900526","-27","","","nome_teste","ESCOLALUIZCAMOES@SEDU.ES.GOV.BR"
1058,1,"EEEF MANOEL LOPES","estadual","32036183","12345678-0133",-20.181721,-40.2581019,"RUA 13 DE MAIO","","TAQUARA II","SERRA","ES","29167647","()33414499","","","nome_teste","ESCOLAMANOELLOPES@SEDU.ES.COM.BR"
1059,1,"EEEF MANOEL PASCHOAL DE OLIVEIRA","estadual","32033842","12345678-0200",-20.3308092,-40.4270328,"RUA PRINCIPAL","","NOVA CANAA","CARIACICA","ES","29153400","(27)33433900","","","nome_teste","ESCOLAMANOELPASCOAL@SEDU.ES.GOV.BR"
1060,1,"EEEF MANOEL ROSINDO DA SILVA","estadual","32043554","12345678-0460",-20.6741197,-40.4997382,"AVENIDA SANTANA","","MEAIPE","GUARAPARI","ES","29208180","()32721834","","","nome_teste","ESCOLAMANOELROSINDO@SEDU.ES.GOV.BR"
1061,1,"EEEF MARCONDES DE SOUZA","estadual","32057474","12345678-0114",-20.1326054,-40.3099350,"RUA JOSE GALDINO COIMBRA","","BOA ESPERANCA","MUQUI","ES","29480000","(28)35541111","","","nome_teste","ESCOLAMARCONDES@SEDU.ES.GOV.BR"
1062,1,"EEEF MARIA ERICINA SANTOS","estadual","32040377","12345678-0176",-20.2844972,-40.3770127,"RUA LAD SANTA CLARA","","PARQUE MOSCOSO","VITORIA","ES","29020680","(27)33224099","","","nome_teste","ESCOLAMARIAERICINA@SEDU.ES.GOV.BR"
1063,1,"EEEF MONTEIRO DA SILVA","estadual","32055790","12345678-0108",-21.0634107,-41.3675338,"PRACA DARCY FRANCISCO PIRES","56","CENTRO","MIMOSO DO SUL","ES","29400000","-28","","","nome_teste","ESCOLAMONTEIROSILVA@SEDU.ES.GOV.BR"
1064,1,"EEEF PATRIMONIO PRATA DOS BAIANOS","estadual","32002971","12345678-0053",-18.3385424,-41.0034737,"RUA PRINCIPAL","","PRATA DOS BAIANOS","ECOPORANGA","ES","29850000","(27)37557026","","","nome_teste","ESCOLAPATRIMONIO@SEDU.ES.GOV.BR"
1065,1,"EEEF PAUTILA RODRIGUES XAVIER","estadual","32035241","12345678-0201",-20.3361027,-40.4190164,"RUA AMAZONAS","","JARDIM AMERICA","CARIACICA","ES","29140040","(27)32360023","","","nome_teste","ESCOLAPAUTILA@SEDU.ES.GOV.BR"
1066,1,"EEEF PEDRO CANARIO RIBEIRO","estadual","32017286","12345678-0438",-18.3001965,-39.9577203,"RUA ALBERTO REIS CASTRO","102","CANARINHO","PEDRO CANARIO","ES","29970000","()37641815","","","nome_teste","ESCOLAPEDROCANARIO@SEDU.ES.GOV.BR"
1067,1,"EEEF PEDRO JOSE VIEIRA","estadual","32055811","12345678-0109",-21.0621714,-41.3647929,"RUA NAZLE ALBUT ACHA","","CENTRO","MIMOSO DO SUL","ES","29400000","-28","","","nome_teste","ESCOLAPEDROJOSE@SEDU.ES.GOV.BR"
1068,1,"EEEF PREFEITO JOSE MARIA MIGUEL FEU ROSA","estadual","32036027","12345678-0134",-20.1261897,-40.3072654,"RUA 22 DE ABRIL","","MANGUINHOS","SERRA","ES","29173041","()32450228","","","nome_teste","ESCOLAPREFEITOJOSE@SEDU.ES.GOV.BR"
1069,1,"EEEF PRESIDENTE MÉDICI","estadual","32033915","12345678-0202",-20.2618209,-40.3886165,"RUA SEBASTIAO","","PRESIDENTE MEDICI","CARIACICA","ES","29153650","(27)33434292","","","nome_teste","ESCOLAMEDICI@SEDU.ES.GOV.BR"
1070,1,"EEEF PRINCESA ISABEL","estadual","32022123","12345678-0346",-19.3951288,-40.0646549,"AVENIDA FILOGONIO PEIXOTO","1883","AVISO","LINHARES","ES","29901295","(27)33711922","","","nome_teste","ESCOLAPRINCESAISABEL@SEDU.ES.GOV.BR"
1071,1,"EEEF PROF ANNA GOMES","estadual","32036515","12345678-0136",-20.1713385,-40.2570909,"RUA SABIA","S/N","SERRA DOURADA III","SERRA","ES","29171801","-27","","","nome_teste","ESCOLAANNAGOMES@SEDU.ES.GOV.BR"
1072,1,"EEEF PROF AUGUSTO CARVALHO","estadual","32034830","12345678-0203",-20.3247382,-40.3747095,"RUA IMACULADA CONCEIÇÃO","","ITACIBA","CARIACICA","ES","29150200","(27)33430316","","","nome_teste","ESCOLAPROFAUGUSTO@SEDU.ES.GOV.BR"
1073,1,"EEEF PROF JOAO ANTUNES DAS DORES","estadual","32035500","12345678-0137",-20.1813623,-40.2115120,"ALAMEDA DOS ESTUDANTES","","PLANALTO SERRANO BLOCO A","SERRA","ES","29176970","-27","","","nome_teste","ESCOLAJOAOANTUNES@SEDU.ES.GOV.BR"
1074,1,"EEEF PROF JORGE ANIZIO BORJAILLE","estadual","32039816","12345678-0480",-20.3491427,-40.3364415,"RUA FERNANDO ANTONIO DA SILVEIRA","98","SANTA RITA","VILA VELHA","ES","29118450","(27)33398491","","","nome_teste","ESCOLAJORGEANIZIO@SEDU.ES.GOV.BR"
1075,1,"EEEF PROF MARIUZA SECHIN","estadual","32067771","12345678-0204",-20.2643105,-40.4203022,"RUA 95","","NOVA ROSA DA PENHA I","CARIACICA","ES","29156976","(27)32547910","","","nome_teste","ESCOLAMARIUZA@SEDU.ES.GOV.BR"
1076,1,"EEEF PROFª ADEVALNI AZEVEDO","estadual","32035470","12345678-0135",-20.1973242,-40.2784869,"AVENIDA VEREADOR JORGE CACULO","","CAMPINHO DA SERRA II","SERRA","ES","29176970","()32918787","","","nome_teste","ESCOLAADEVALNI@SEDU.ES.GOV.BR"
1077,1,"EEEF PROFESSOR CARLOS DIAS MIRANDA CUNHA","estadual","32007825","12345678-0401",-19.016382,-40.54164,"RUA JOSÉ ALVES","22","POPULARES","SAO GABRIEL DA PALHA","ES","29780000","-27","","","nome_teste","ESCOLACARLOSDIAS@SEDU.ES.GOV.BR"
1078,1,"EEEF PROFESSOR JOSE ZACCHI","estadual","32081286","12345678-0205",-20.1015843,-40.5285712,"AVENIDA NOSSA SENHORA DA PENHA","","FLEXAL I","CARIACICA","ES","29155599","()","","","nome_teste","email@email.com"
1079,1,"EEEF PROFESSOR LELLIS","estadual","32045344","12345678-0298",-20.7588349,-41.5357030,"RUA DR OLIVIO CORREA PEDROSA","178","CENTRO","ALEGRE","ES","29500000","(28)35524038","","","nome_teste","ESCOLALELLIS@SEDU.ES.GOV.BR"
1080,1,"EEEF PROFESSORA MARIA DA PAZ PIMENTEL","estadual","32061943","12345678-0122",-19.9375242,-40.4081412,"RUA JOÃO ARÇARI","","CENTRO","FUNDAO","ES","29188000","-27","","","nome_teste","ESCOLAMARIADAPAZ@SEDU.ES.GOV.BR"
1081,1,"EEEF REGINA BOLSSANELLO FORNAZIER","estadual","32023049","12345678-0360",-19.1902477,-40.0976990,"RUA PRINCIPAL","","JUNCADO","SOORETAMA","ES","29927000","(27)32734034","","","nome_teste","ESCOLABOLSSANELLO@SEDU.ES.COM.BR"
1082,1,"EEEF ROTARY","estadual","32052642","12345678-0076",-20.8483174,-41.1316119,"RUA NELSON BORELLI","6","OTTON MARINS","CACHOEIRO DE ITAPEMIRIM","ES","29301822","(28)35119845","","","nome_teste","ESCOLAROTARY@SEDU.ES.GOV.BR"
1083,1,"EEEF SANTA CECILIA","estadual","32052650","12345678-0077",-20.8554108,-41.1159105,"RUA CABO TAVEIRA","","SANTA CECILIA","CACHOEIRO DE ITAPEMIRIM","ES","29307530","()35170159","","","nome_teste","ESCOLASANTACECILIA@SEDU.ES.GOV.BR"
1084,1,"EEEF SANTA TEREZINHA","estadual","32002998","12345678-0054",-20.8402948,-41.1093816,"RUA SAO JOSE","S/N","CENTRO","ECOPORANGA","ES","29850000","(27)37558057","","","nome_teste","ESCOLASANTATEREZINHA@SEDU.ES.GOV.BR"
1085,1,"EEEF SAO JOSE","estadual","32043643","12345678-0461",-20.6472300,-40.5119929,"RODOVIA JONES DOS SANTOS NEVES","","SAO JOSE","GUARAPARI","ES","29200260","-27","","","nome_teste","ESCOLASJOSE@SEDU.ES.GOV.BR"
1086,1,"EEEF STELLITA RAMOS","estadual","32034920","12345678-0206",-20.3591274,-40.4383806,"RUA SILVANO FERREIRA SANTOS","","PORTO NOVO","CARIACICA","ES","29155355","(27)33434148","","","nome_teste","ESCOLASTELLITA@SEDU.ES.GOV.BR"
1087,1,"EEEF TAQUARA I","estadual","32036540","12345678-0138",-20.2131828,-40.2191227,"RUA DOS BEIJA FLORES","","TAQUARA I","SERRA","ES","29175350","()33414243","","","nome_teste","ESCOLATAQUARA@SEDU.ES.GOV.BR"
1088,1,"EEEF TIRADENTES","estadual","32034962","12345678-0207",-20.3528346,-40.3987718,"RUA FERRO E ACO","","BELA AURORA","CARIACICA","ES","29141550","-27","","","nome_teste","ESCOLATIRADENTES@SEDU.ES.GOV.BR"
1089,1,"EEEF VALERIO","estadual","32008481","12345678-0420",-18.9986221,-40.3911314,"RUA ANTONIO BARCELOS","167","VILA NOVA","VILA VALERIO","ES","29785000","(27)37281565","","","nome_teste","ESCOLAVALERIO@SEDU.ES.GOV.BR"
1090,1,"EEEF VARGEM ALEGRE","estadual","32000928","12345678-0040",-18.8081950,-40.8513116,"RUA ALFA","445","VARGEM ALEGRE","BARRA DE SAO FRANCISCO","ES","29800000","(27)37569024","","","nome_teste","ESCOLAVARGEMALEGRE@SEDU.ES.GOV.BR"
1091,1,"EEEF VENTINO DA COSTA BRANDAO","estadual","32034970","12345678-0208",-20.3612524,-40.4050624,"RUA AMAZONAS","","ROSA DA PENHA","CARIACICA","ES","29143320","(27)33430016","","","nome_teste","ESCOLAVENTINOCOSTA@SEDU.ES.GOV.BR"
1092,1,"EEEF VIRGINIO PEREIRA","estadual","32037473","12345678-0139",-20.0509347,-40.2025228,"AVENIDA EDVALDO LIMA","","NOVA ALMEIDA CENTRO","SERRA","ES","29182050","(27)32531883","","","nome_teste","ESCOLAVIRGINIO@SEDU.ES.GOV.BR"
1093,1,"EEEFM ADOLFINA ZAMPROGNO","estadual","32038852","12345678-0481",-20.3388790,-40.3395364,"RUA SEBASTIAO GAIBA","","VILA GARRIDO","VILA VELHA","ES","29116300","()33261287/33591303","","","nome_teste","ESCOLAADOLFINA@SEDU.ES.GOV.BR"
1094,1,"EEEFM AFLORDIZIO CARVALHO DA SILVA","estadual","32040695","12345678-0177",-20.3379468,-40.3972913,"RUA RUBENS BLEY","100","DA PENHA","VITORIA","ES","29047170","(27)33243032","","","nome_teste","ESCOLAAFLORDIZIO@SEDU.ES.GOV.BR"
1095,1,"EEEFM AFONSO CLAUDIO","estadual","32025920","12345678-0001",-20.0748583,-41.1273716,"RUA UTE AMELIA GASTIN PADUA","124","SAO TARCISIO","AFONSO CLAUDIO","ES","29600000","(27)37351575/37352254","","","nome_teste","ESCOLAAFONSOCLAUDIO@SEDU.ES.GOV.BR"
1096,1,"EEEFM AGENOR DE SOUZA LE","estadual","32038488","12345678-0482",-20.3461350,-40.2986337,"RUA ALAN KARDEC","","DIVINO ESPIRITO SANTO","VILA VELHA","ES","29107240","(27)33294871","","","nome_teste","ESCOLAAGENOR@SEDU.ES.GOV.BR"
1097,1,"EEEFM AGOSTINHO AGRIZZI","estadual","32059310","12345678-0119",-20.6740020,-41.0098203,"RUA PRAÇA PADRE OLIVIO","","CENTRO","VARGEM ALTA","ES","29297000","(28)35251221","","","nome_teste","ESCOLAAGRIZZI@SEDU.ES.GOV.BR"
1098,1,"EEEFM AGOSTINHO SIMONATO","estadual","32052189","12345678-0078",-20.8456906,-41.1489404,"RUA HILDA LOPES BARBIERI","S/N","JARDIM AMERICA","CACHOEIRO DE ITAPEMIRIM","ES","29310715","(28)35268160","","","nome_teste","ESCOLAAGOSTINHO@SEDU.ES.GOV.BR"
1099,1,"EEEFM AGUIA BRANCA","estadual","32005105","12345678-0036",-18.9848567,-40.7380620,"RUA JORGE ELIAS HITTI","220","CENTRO","AGUIA BRANCA","ES","29795000","-27","","","nome_teste","ESCOLAGUIABRANCA@SEDU.ES.GOV.BR"
1100,1,"EEEFM ALADIM SILVESTRE DE ALMEIDA","municipal","32001606","12345678-0041",-18.8883520,-41.0159400,"RUA JOSE TIAGO","","MONTE SINAI","BARRA DE SAO FRANCISCO","ES","29807990","(27)37762056","","","nome_teste","ESCOLAALADIMALMEIDA@SEDU.ES.GOV.BR"
1101,1,"EEEFM ALARICO JOSE DE LIMA","municipal","32007175","12345678-0382",-20.4481181,-40.3538799,"RUA DO COMERCIO","","GUARAREMA","NOVA VENECIA","ES","29842000","(27)37723104","","","nome_teste","ESCOLAALARICOJOSE@SEDU.ES.GOV.BR"
1102,1,"EEEFM ALFREDO LEMOS","municipal","32030983","12345678-0274",-19.5874520,-40.1941252,"RUA MALVINA PASSAMANI","","ITAIMBE","ITAGUACU","ES","29690000","-27","","","nome_teste","ESCOLAALFREDOLEMOS@SEDU.ES.GOV.BR"
1103,1,"EEEFM ALICE HOLZMEISTER","municipal","32031661","12345678-0244",-20.1004038,-40.5273817,"RUA DIRETOR RUDIO","40","CENTRO","SANTA LEOPOLDINA","ES","29640000","(27)32661196","","","nome_teste","ESCOLAALICE@SEDU.ES.GOV.BR"
1104,1,"EEEFM ALMIRANTE BARROSO","municipal","32041560","12345678-0178",-20.3115329,-40.3915170,"RUA DO ALMIRANTE","S/Nº","GOIABEIRAS","VITORIA","ES","29070360","(27)33279232","","","nome_teste","ESCOLAALMIRANTE@SEDU.ES.GOV.BR"
1105,1,"EEEFM ALTO RIO POSSMOSER","municipal","32032633","12345678-0022",-20.0257850,-40.7443164,"AVENIDA GERMANO MARQUARDT","","ALTO RIO POSSMOSER","SANTA MARIA DE JETIBA","ES","29645000","-27","","","nome_teste","ESCOLAPOSSMOSER@SEDU.ES.GOV.BR"
1106,1,"EEEFM ALVARO CASTELO","municipal","32026552","12345678-0008",-20.1445744,-41.2878764,"RUA PRAÇA 15 DE DEZEMBRO","100","BELARMINO ULIANA","BREJETUBA","ES","29630000","(27)96249756","","","nome_teste","ESCOLAALVAROCASTELO@SEDU.ES.GOV.BR"
1107,1,"EEEFM ALZIRA RAMOS","municipal","32035004","12345678-0210",-20.2643105,-40.4203022,"RUA PRINCIPAL","","RIO MARINHO","CARIACICA","ES","29140156","(27)33262447","","","nome_teste","ESCOLAALZIRARAMOS@SEDU.ES.GOV.BR"
1108,1,"EEEFM AMERICO SILVARES","municipal","32017952","12345678-0447",-18.7209716,-39.8727511,"AVENIDA BRASIL","203","VILA NOVA","SAO MATEUS","ES","29941090","(27)37633979","","","nome_teste","ESCOLAAMERICO@SEDU.ES.GOV.BR"
1109,1,"EEEFM ANA LOPES BALESTRERO","municipal","32034016","12345678-0211",-20.3482859,-40.4241660,"RUA LOURIVAL DE ALMEIDA","32","FLEXAL I","CARIACICA","ES","29155623","(27)33434728","","","nome_teste","ESCOLAANABALESTRERO@SEDU.ES.GOV.BR"
1110,1,"EEEFM ANA MONTEIRO DE PAIVA","municipal","32045719","12345678-0299",-20.6111366,-41.4504662,"RUA SEBASTIÃO JOSE VIAL","320","ANUTIBA","ALEGRE","ES","29530000","(28)35527124","","","nome_teste","ESCOLAANAMONTEIRO@SEDU.ES.GOV.BR"
1111,1,"EEEFM ANGELICA PAIXAO","municipal","32043490","12345678-0462",-20.6668702,-40.4951070,"RUA OZIAS SANTANA","100","MORRO ATALAIA","GUARAPARI","ES","29200010","-27","","","nome_teste","ESCOLAANGELICAPAIXAO@SEDU.ES.GOV.BR"
1112,1,"EEEFM ANILIA KNAAK BUSS","municipal","32065035","12345678-0246",-20.3646691,-40.4274631,"RUA RESPLENDOR","","CANAA","VIANA","ES","29135000","(27)33441027","","","nome_teste","ESCOLAANILIAKANAAK@SEDU.ES.GOV.BR"
1113,1,"EEEFM ANTONIO ACHA","municipal","32055820","12345678-0110",-20.2153252,-40.2639590,"RUA JOAQUIM LEITE GUIMARAES","","SANTA TEREZINHA","MIMOSO DO SUL","ES","29400000","-28","","","nome_teste","ESCOLAANTONIOACHA@SEDU.ES.GOV.BR"
1114,1,"EEEFM ANTONIO DOS SANTOS NEVES","municipal","32005652","12345678-0369",-18.5390306,-40.2932840,"AVENIDA DEMOCRATA","845","CENTRO","BOA ESPERANCA","ES","29845000","-27","","","nome_teste","ESCOLAANTONIONEVES@SEDU.ES.GOV.BR"
1115,1,"EEEFM ANTONIO ENGRACIO DA SILVA","municipal","32036051","12345678-0140",-20.3176906,-40.3350863,"RUA FLOR DE CACTUS","","FEU ROSA","SERRA","ES","29172045","(27)32432903","","","nome_teste","ESCOLAANTONIO@SEDU.GOV.ES.BR"
1116,1,"EEEFM ANTONIO JACQUES SOARES","municipal","32060696","12345678-0102",-20.1968176,-40.1944462,"RUA PRINCIPAL","","GARRAFAO","ITAPEMIRIM","ES","29330000","(28)35299074","","","nome_teste","ESCOLAANTONOSOARES@SEDU.ES.GOV.BR"
1117,1,"EEEFM ANTONIO LEMOS JUNIOR","municipal","32048092","12345678-0315",-20.5471088,-41.6671129,"RUA CONCEIÇÃO MIRANDA VAILANT","21","CENTRO","IBITIRAMA","ES","29540000","(28)35691165","","","nome_teste","ESCOLAANTONIOLEMOS@SEDU.ES.GOV.BR"
1118,1,"EEEFM ANTONIO LUIZ VALIATI","municipal","32036060","12345678-0141",-20.3113904,-40.3023448,"RUA PROJETADA","S/Nº","JARDIM TROPICAL","SERRA","ES","29160010","()33280031","","","nome_teste","ESCOLAANTONIOLUIZ@SEDU.ES.GOV.BR"
1119,1,"EEEFM ARARIBOIA","municipal","32013272","12345678-0291",-19.4034125,-40.0528509,"AVENIDA JOSÉ NUNES DE MIRANDA","770","SEBASTIAO FURTADO","PANCAS","ES","29750000","(27)37261079","","","nome_teste","ESCOLAARARIBOIA@SEDU.ES.GOV.BR"
1120,1,"EEEFM ARISTEU AGUIAR","municipal","32045379","12345678-0300",-20.7594500,-41.5374233,"AVENIDA DR WANDERLEY","","CENTRO","ALEGRE","ES","29500000","(28)35524031","","","nome_teste","ESCOLAARISTEUAGUIAR@SEDU.ES.GOV.BR"
1121,1,"EEEFM ARISTIDES FREIRE","municipal","32010486","12345678-0261",-19.5146429,-40.6752853,"PRACA MUNICIPAL","70","CENTRO","COLATINA","ES","29700220","(27)37211927/92672545","","","nome_teste","ESCOLAARISTIDES@SEDU.ES.GOV.BR"
1122,1,"EEEFM ARISTOBULO BARBOSA LEAO","municipal","32037368","12345678-0142",-20.3113904,-40.3023448,"AVENIDA MARIO DA SILVA NUNES","1000","JARDIM LIMOEIRO","SERRA","ES","29164044","-27","","","nome_teste","ESCOLAARISTOBULO@SEDU.ES.GOV.BR"
1123,1,"EEEFM ARLINDO FERREIRA LOPES","municipal","32036086","12345678-0143",-20.1215224,-40.3077898,"RUA ELIAS TOMAS","","BOA VISTA I","SERRA","ES","29161520","(27)33280783","","","nome_teste","ESCOLAARLINDO@SEDU.ES.GOV.BR"
1124,1,"EEEFM ARMANDO BARBOSA QUITIBA","municipal","32023014","12345678-0361",-20.3522482,-40.3411731,"RUA VITORIO BOBBIO","412","CENTRO","SOORETAMA","ES","29927000","-27","","","nome_teste","ESCOLAARMANDOBARBOSA@SEDU.ES.GOV.BR"
1125,1,"EEEFM ARQUIMIMO MATTOS","municipal","32050364","12345678-0324",-18.9985419,-40.3919181,"RUA NOSSA SENHORA DA CONCEICAO","","PIACU","MUNIZ FREIRE","ES","29386000","-28","","","nome_teste","ESCOLAARQUIMIMO@SEDU.ES.GOV.BR"
1126,1,"EEEFM ARY PARREIRAS","municipal","32035012","12345678-0212",-20.3378619,-40.3973230,"RUA FUNDAO","","VILA CAPIXABA","CARIACICA","ES","29148140","(27)33434796","","","nome_teste","ESCOLAARYPARREIRAS@SEDU.ES.GOV.BR"
1127,1,"EEEFM ASSISOLINA ASSIS ANDRADE","municipal","32039352","12345678-0483",-20.3394787,-40.3231151,"RUA SALVADOR","","ARIBIRI","VILA VELHA","ES","29120020","(27)33191055/33191055","","","nome_teste","ESCOLAASSISOLINA@SEDU.ES.GOV.BR"
1128,1,"EEEFM ATILIO VIVACQUA","municipal","32008503","12345678-0421",-18.9985419,-40.3919181,"RUA NATALINO COSSI","203","CENTRO","VILA VALERIO","ES","29785000","(27)37281115","","","nome_teste","ESCOLAATILIOVIVACQUA@SEDU.ES.GOV.BR"
1129,1,"EEEFM AUGUSTO DE OLIVEIRA","municipal","32096801","12345678-0430",-18.5887887,-39.7365721,"AVENIDA WALDEREDO FARIA","728","BRAÇO DO RIO","CONCEICAO DA BARRA","ES","29967000","(27)37624083","","","nome_teste","ESCOLAAUGUSTOOLI@SEDU.ES.GOV.BR"
1130,1,"EEEFM BANANAL","municipal","32025149","12345678-0358",-19.2719200,-40.3279875,"RUA PADRE ALESSANDRO FERLONI","50","CENTRO","RIO BANANAL","ES","29920000","(27)32651078","","","nome_teste","ESCOLABANANAL@SEDU.ES.GOV.BR"
1131,1,"EEEFM BARTOUVINO COSTA","municipal","32021933","12345678-0348",-20.6472300,-40.5119929,"AVENIDA JONES DOS SANTOS NEVES","","CENTRO","LINHARES","ES","29900030","-27","","","nome_teste","ESCOLABARTOUVINO@SEDU.ES.GOV.BR"
1132,1,"EEEFM BELMIRO TEIXEIRA PIMENTA","municipal","32036558","12345678-0144",-20.2377986,-40.2766787,"RUA DOS PERDIZES","","EURICO SALLES","SERRA","ES","29160390","(27)33280135","","","nome_teste","ESCOLABELMIRO@SEDU.ES.GOV.BR"
1133,1,"EEEFM BENICIO GONCALVES","municipal","32039085","12345678-0484",-20.3477821,-40.2949528,"AVENIDA GABRIEL DA PALHA","","VALE ENCANTADO","VILA VELHA","ES","29113300","(27)33264699","","","nome_teste","ESCOLABENICIO@SEDU.ES.GOV.BR"
1134,1,"EEEFM BERNARDINO MONTEIRO","municipal","32052235","12345678-0079",-20.8467047,-41.1202199,"RUA FRANCISCO MARTINS","13","AMARELO","CACHOEIRO DE ITAPEMIRIM","ES","29304420","(28)35170189","","","nome_teste","ESCOLABERNARDINO@SEDU.ES.GOV.BR"
1135,1,"EEEFM BERNARDO HORTA","municipal","32048459","12345678-0317",-20.3482941,-41.6433114,"RUA JOAO MARIANO","27","CENTRO","IRUPI","ES","29398000","(28)35481117","","","nome_teste","ESCOLABERNARDOHORTA@SEDU.ES.GOV.BR"
1136,1,"EEEFM BRAULIO FRANCO","municipal","32049536","12345678-0325",-20.4656769,-41.4160225,"RUA CAPITAO JOAO ALVES","60","CENTRO","MUNIZ FREIRE","ES","29380000","(28)35441814","","","nome_teste","ESCOLABRAULIO@SEDU.ES.GOV.BR"
1137,1,"EEEFM CABOCLO BERNARDO","municipal","32020341","12345678-0330",-19.8205338,-40.2768218,"AVENIDA APARICIO ALVARENGA","145","BARRA DO RIACHO","ARACRUZ","ES","29197556","-27","","","nome_teste","ESCOLACABOCLO@SEDU.ES.GOV.BR"
1138,1,"EEEFM CAMILA MOTTA","municipal","32041756","12345678-0457",-20.6395700,-40.7490809,"RUA NELSON DA COSTA MELLO","197","OURO BRANCO","ALFREDO CHAVES","ES","29240000","(27)32691550","","","nome_teste","ESCOLACAMILAMOTTA@SEDU.ES.GOV.BR"
1139,1,"EEEFM CANDIDA POVOA","municipal","32050984","12345678-0306",-18.1264868,-40.3605671,"RUA LAD MARECHAL CANDIDO RONDON","","CENTRO","APIACA","ES","29450000","(28)35571417","","","nome_teste","ESCOLACANDIDAPOVOA@SEDU.ES.GOV.BR"
1140,1,"EEEFM CANDIDO PORTINARI","municipal","32079842","12345678-0362",-20.3483776,-40.3090260,"RUA JUNCADO","","JUNCADO","SOORETAMA","ES","29927982","-27","","","nome_teste","ESCOLAPORTINARI@SEDU.ES.GOV.BR"
1141,1,"EEEFM CATHARINA CHEQUER","municipal","32039387","12345678-0485",-20.3699620,-40.3176181,"RUA ALECRIM","100","NOVO MEXICO","VILA VELHA","ES","29104100","(27)33390527","","","nome_teste","ESCOLACATHARINA@SEDU.ES.GOV.BR"
1142,1,"EEEFM CEL ANTONIO DUARTE","municipal","32044364","12345678-0099",-20.2175081,-40.2732692,"AVENIDA DANILO MONTEIRO DE CASTRO","229","CENTRO","ICONHA","ES","29280000","(28)35371832","","","nome_teste","ESCOLACORONELANTONIO@SEDU.ES.GOV.BR"
1143,1,"EEEFM CEL OLIMPIO CUNHA","municipal","32033745","12345678-0213",-20.3113224,-40.3913399,"RUA MARIO ARAUJO","13","SANTANA","CARIACICA","ES","29154100","(27)33362823","","","nome_teste","ESCOLAOLIMPIOCUNHA@SEDU.ES.GOV.BR"
1144,1,"EEEFM CHRISTIANO DIAS LOPES","municipal","32004273","12345678-0058",-20.8539317,-41.1115701,"RUA ALVIM SAMPAIO","","IPIRANGA","MANTENOPOLIS","ES","29770000","(27)37581092","","","nome_teste","ESCOLACHRISTIANO@SEDU.ES.COM.BR"
1145,1,"EEEFM CLOTILDE RATO","municipal","32036566","12345678-0145",-20.2482458,-40.2644109,"RUA RUI BARBOSA","451","DE FATIMA","SERRA","ES","29160813","(27)33372819","","","nome_teste","ESCOLACLOTILDERATO@SEDU.ES.GOV.BR"
1146,1,"EEEFM CLOVIS BORGES MIGUEL","municipal","32035527","12345678-0146",-20.1307118,-40.3084155,"RUA ESTUDANTES","","SANTO ANTONIO","SERRA","ES","29178679","(27)88936352","","","nome_teste","ESCOLACLOVIS@SEDU.ES.GOV.BR"
1147,1,"EEEFM CONDE DE LINHARES","municipal","32010702","12345678-0262",-19.5146429,-40.6752853,"RUA ADAMASTOR SALVADOR","64","CENTRO","COLATINA","ES","29700050","-27","","","nome_teste","ESCOLACONDELINHARES@SEDU.ES.GOV.BR"
1148,1,"EEEFM CORA CORALINA","municipal","32081308","12345678-0486",-20.4674253,-40.4593419,"RODOVIA BR-101 SUL","","XURI","VILA VELHA","ES","29127815","()","","","nome_teste","email@email.com"
1149,1,"EEEFM CORONEL GOMES DE OLIVEIRA","municipal","32042647","12345678-0458",-20.7947375,-40.6424454,"RODOVIA ESTRADA DE RODAGEM","1078","ANCHIETA","ANCHIETA","ES","29230000","-28","","","nome_teste","ESCOLACELGOMES@SEDU.ES.GOV.BR"
1150,1,"EEEFM D JOAO BATISTA DA MOTTA E ALBUQUERQUE","municipal","32036116","12345678-0147",-20.3113904,-40.3023448,"RUA MARIA DE FATIMA DA COSTA","","ANDRE CARLONI","SERRA","ES","29161828","()32281588/33280775","","","nome_teste","ESCOLAJOAOBATISTA@SEDU.ES.GOV.BR"
1151,1,"EEEFM DAVID ROLDI","municipal","32033540","12345678-0296",-19.7194399,-40.6353480,"RUA JOÃO GUERINI","300","VILA VERDE","SAO ROQUE DO CANAA","ES","29665000","(27)37291030","","","nome_teste","ESCOLADAVIDROLDI@SEDU.ES.GOV.BR"
1152,1,"EEEFM DE ECOPORANGA","municipal","32003005","12345678-0055",-20.8496198,-41.1457503,"PRACA TOLENTINO XAVIER RIBEIRO","586","CENTRO","ECOPORANGA","ES","29850000","-27","","","nome_teste","ESCOLAECOPORANGA@SEDU.ES.GOV.BR"
1153,1,"EEEFM DE MUCURICI","municipal","32015089","12345678-0379",-20.3526622,-40.3008199,"RUA ROUXINOL","6","PLANALTO","MUCURICI","ES","29880000","-27","","","nome_teste","ESCOLAMUCURICI@SEDU.ES.GOV.BR"
1154,1,"EEEFM DE PONTO DO ALTO","municipal","32029306","12345678-0014",-20.2914163,-40.8174847,"RUA REINOLDO KIEFER","92","PONTO ALTO","DOMINGOS MARTINS","ES","29273993","(27)32495139","","","nome_teste","ESCOLAPONTODOALTO@SEDU.ES.GOV.BR"
1155,1,"EEEFM DERMEVAL LEITE RIBEIRO","municipal","32000499","12345678-0032",-18.1852013,-40.7159999,"RUA RUA DA QUADRA","","SANTAO AGOSTINHO","AGUA DOCE DO NORTE","ES","29824000","(27)37596024","","","nome_teste","ESCOLADERMEVALLEITE@SEDU.ES.GOV.BR"
1156,1,"EEEFM DES CARLOS XAVIER PAES BARRETO","municipal","32040717","12345678-0179",-20.3102659,-40.3022872,"AVENIDA LEITAO DA SILVA","","PRAIA DO SUA","VITORIA","ES","29052110","(27)33242592","","","nome_teste","ESCOLAPAESBARRETO@SEDU.ES.GOV.BR"
1157,1,"EEEFM DOMINGOS JOSE MARTINS","municipal","32059850","12345678-0106",-21.0198613,-40.8139368,"AVENIDA SIMAO SOARES","S/N","BARRA DE ITAPEMIRIM","MARATAIZES","ES","29345000","(28)35322524","","","nome_teste","ESCOLADOMINGOSJOSE@SEDU.ES.GOV.BR"
1158,1,"EEEFM DR AFONSO SCHWAB","municipal","32035020","12345678-0214",-20.2643105,-40.4203022,"RUA AMARO","","JARDIM AMERICA","CARIACICA","ES","29140300","(27)32361183","","","nome_teste","ESCOLAAFONSOSCHWAB@SEDU.ES.GOV.BR"
1159,1,"EEEFM DR FRANCISCO FREITAS LIMA","municipal","32038941","12345678-0487",-20.3362624,-40.3312410,"RUA ANTONIO ABRAAO","","ILHA DAS FLORES","VILA VELHA","ES","29115550","-27","","","nome_teste","ESCOLAFRANCISCO@SEDU.ES.GOV.BR"
1160,1,"EEEFM DR JOSE MOYSES","municipal","32076410","12345678-0215",-19.5074556,-41.0238016,"RUA RIO ITAPEMIRIM","","SANTA CATARINA","CARIACICA","ES","29143616","(27)33696470","","","nome_teste","ESCOLAJOSEMOISES@SEDU.ES.GOV.BR"
1161,1,"EEEFM DR. JONES DOS SANTOS NEVES","municipal","32009402","12345678-0255",-19.50788,-41.024056,"RUA ANTONIO SAMPAIO","1423","SAPUCAIA","BAIXO GUANDU","ES","29730000","(27)37323920","","","nome_teste","ESCOLADRJONES@SEDU.ES.GOV.BR"
1162,1,"EEEFM DYLIO PENEDO","municipal","32020180","12345678-0331",-19.5878118,-40.1939857,"RUA EURICO CONCEICAO","","JACUPEMBA","ARACRUZ","ES","29196019","-27","","","nome_teste","ESCOLADYLIOPENEDO@SEDU.ES.GOV.BR"
1163,1,"EEEFM ELICE BAPTISTA GÁUDIO","municipal","32036124","12345678-0148",-20.2777408,-40.3359502,"RUA TULIPAS","","SERRA DOURADA II","SERRA","ES","29171233","(27)33187682/33187682","","","nome_teste","ESCOLAELICEBAPTISTA@SEDU.ES.GOV.BR"
1164,1,"EEEFM ELVIRA BARROS","municipal","32027753","12345678-0002",-20.0783294,-41.1264490,"AVENIDA LEVY DIAS DE CARVALHO","200","SERRA PELADA","AFONSO CLAUDIO","ES","29603000","(27)37357014","","","nome_teste","ESCOLAELVIRA@SEDU.ES.GOV.BR"
1165,1,"EEEFM ELZA LEMOS ANDREATTA","municipal","32063199","12345678-0180",-20.3680589,-40.3740044,"RUA AMADEU MUNIZ CORREIA","","ILHA DAS CAIEIRAS","VITORIA","ES","29032170","-27","","","nome_teste","ESCOLAELZALEMOS@SEDU.ES.GOV.BR"
1166,1,"EEEFM EMILIO OSCAR HULLE","municipal","32029993","12345678-0242",-20.4163803,-40.6703837,"RUA COLINA DA FE E DA CIENCIA","0","CENTRO","MARECHAL FLORIANO","ES","29255000","(27)32881547","","","nome_teste","ESCOLAEMILIOOSCAR@SEDU.ES.GOV.BR"
1167,1,"EEEFM ERMENTINA LEAL","municipal","32020333","12345678-0332",-18.3001965,-39.9577203,"AVENIDA SAO BENEDITO","344","VILA DO RIACHO","ARACRUZ","ES","29197105","(27)32509167","","","nome_teste","ESCOLAERMENTINALEAL@SEDU.ES.GOV.BR"
1168,1,"EEEFM EULALIA MOREIRA","municipal","32033788","12345678-0216",-19.5117320,-41.0205263,"RODOVIA JOSE SETTE KM 12","","PORTO DE CARIACICA","CARIACICA","ES","29156650","(27)32542580","","","nome_teste","ESCOLAEULALIA@SEDU.ES.GOV.BR"
1169,1,"EEEFM EURICO SALLES","municipal","32030584","12345678-0275",-19.7454247,-40.0410268,"AVENIDA 17 DE FEVEREIRO","160","CENTRO","ITAGUACU","ES","29690000","(27)37251494","","","nome_teste","ESCOLAEURICOSALLES@SEDU.ES.GOV.BR"
1170,1,"EEEFM FERNANDO DE ABREU","municipal","32051328","12345678-0061",-20.8514045,-41.1279420,"RUA GENERAL DUTRA","15","CENTRO","ATILIO VIVACQUA","ES","29490000","(28)35381003","","","nome_teste","ESCOLAFERNANDOABREU@SEDU.ES.GOV.BR"
1171,1,"EEEFM FIORAVANTE CALIMAN","municipal","32030177","12345678-0031",-20.3275068,-41.1359347,"AVENIDA EVANDI AMERICO COMARELA","675","CENTRO","VENDA NOVA DO IMIGRANTE","ES","29375000","(28)35462390","","","nome_teste","ESCOLAFIORAVANTECALIMAN@HOTMAIL.COM"
1172,1,"EEEFM FLORENTINO AVIDOS","municipal","32039409","12345678-0488",-20.3590037,-40.3164564,"AVENIDA VITORIA REGIA","","SANTA INES","VILA VELHA","ES","29108055","(27)33394355","","","nome_teste","ESCOLAFLORENTINO@SEDU.ES.GOV.BR"
1173,1,"EEEFM FRANCISCA PEIXOTO MIGUEL","municipal","32065264","12345678-0149",-20.2966115,-40.3156473,"RUA ACUCENA","","SERRA DOURADA II","SERRA","ES","29171217","()33415899","","","nome_teste","ESCOLAFRANCISCA@SEDU.ES.GOV.BR"
1174,1,"EEEFM FRANCISCO COELHO AVILA JUNIOR","municipal","32052308","12345678-0080",-20.8467047,-41.1202199,"RUA PEDRO SILVAN","","CORONEL BORGES","CACHOEIRO DE ITAPEMIRIM","ES","29306240","(28)35111795","","","nome_teste","ESCOLAFRANCISCOAVILA@SEDU.ES.GOV.BR"
1175,1,"EEEFM FRANCISCO NASCIMENTO","municipal","32037163","12345678-0150",-20.3169108,-40.3580857,"RUA E","215","CASTELANDIA","SERRA","ES","29172639","(27)32433627","","","nome_teste","ESCOLANASCIMENTO@SEDU.ES.GOV.BR"
1176,1,"EEEFM FRATERNIDADE E LUZ","municipal","32052316","12345678-0081",-20.8467047,-41.1202199,"RUA JOAO SANTANA","","SUMARE","CACHOEIRO DE ITAPEMIRIM","ES","29304540","(28)35111542","","","nome_teste","ESCOLAFRATERNIDADE@SEDU.ES.GOV.BR"
1177,1,"EEEFM FREDERICO PRETTI","municipal","32033478","12345678-0124",-20.2117670,-40.2658715,"RUA RUA PROJETADA","","SAO JOAO DE PETROPOLIS","SANTA TERESA","ES","29660000","(27)32596172","","","nome_teste","ESCOLAFREDERICO@SEDU.ES.GOV.BR"
1178,1,"EEEFM GERALDO VARGAS NOGUEIRA","municipal","32010710","12345678-0263",-19.5146429,-40.6752853,"AVENIDA BRASIL","","LACE","COLATINA","ES","29703035","(27)37214508","","","nome_teste","ESCOLAGERALDOVARGAS@SEDU.ES.GOV.BR"
1179,1,"EEEFM GETULIO PIMENTEL LOUREIRO","municipal","32035403","12345678-0151",-20.3206742,-40.3397357,"RUA PROJETADA","S/N","JARDIM GUANABARA","SERRA","ES","29177520","-27","","","nome_teste","ESCOLAGETULIO@SEDU.ES.GOV.BR"
1180,1,"EEEFM GISELA SALLOKER FAYET","municipal","32029292","12345678-0015",-20.3607970,-40.6598105,"ESTRADA PRINCIPAL","35","PARAJU","DOMINGOS MARTINS","ES","29273000","(27)32491046","","","nome_teste","ESCOLAGISELASALOKER@SEDU.ES.GOV.BR"
1181,1,"EEEFM GOVERNADOR LINDENBERG","municipal","32000979","12345678-0042",-18.7553213,-40.8968398,"RUA DIRCEU CARDOSO","240","IRMAOS FERNANDES","BARRA DE SAO FRANCISCO","ES","29800000","(27)37564896","","","nome_teste","ESCOLAGOVERNADOR@SEDU.ES.GOV.BR"
1182,1,"EEEFM GRACA ARANHA","municipal","32032277","12345678-0025",-20.0289344,-40.7430947,"RUA HERMANN ROELKE","131","CENTRO","SANTA MARIA DE JETIBA","ES","29645000","(27)32631765","","","nome_teste","ESCOLAGRACAARANHA@SEDU.ES.GOV.BR"
1183,1,"EEEFM HENRIQUE COUTINHO","municipal","32048920","12345678-0320",-20.3536240,-41.5338333,"RUA DES EPAMINONDAS AMARAL","190","CENTRO","IUNA","ES","29390000","-28","","","nome_teste","ESCOLAHENRIQUE@SEDU.ES.GOV.BR"
1184,1,"EEEFM HILDEBRANDO LUCAS","municipal","32040300","12345678-0181",-20.2976178,-40.2957768,"AVENIDA MARUIPE","1455","MARUIPE","VITORIA","ES","29043210","()33258451","","","nome_teste","ESCOLAHILDEBRANDO@SEDU.ES.GOV.BR"
1185,1,"EEEFM HONÓRIO FRAGA","municipal","32010729","12345678-0264",-19.5225483,-40.6364296,"RUA APARECIDA","214","SAO SILVANO","COLATINA","ES","29703270","-27","","","nome_teste","ESCOLAHONORIO@SEDU.ES.GOV.BR"
1186,1,"EEEFM HORACIO PLINIO","municipal","32051840","12345678-0308",-18.0954505,-40.5173680,"RUA ATAULPHO LOBO","70","CENTRO","BOM JESUS DO NORTE","ES","29460000","(28)35621465","","","nome_teste","ESCOLAHORACIOPLINIO@SEDU.ES.GOV.BR"
1187,1,"EEEFM HUNNEY EVEREST PIOVESAN","municipal","32035039","12345678-0217",-20.3468709,-40.3889369,"RUA CARLOS ROGERIO JESUS GOMES","100","CRUZEIRO DO SUL","CARIACICA","ES","29144190","(27)33366283","","","nome_teste","ESCOLAHUNNEY@SEDU.ES.GOV.BR"
1188,1,"EEEFM IRACEMA CONCEICAO SILVA","municipal","32036574","12345678-0152",-20.2710120,-40.2929415,"RUA GUIMARAES ROSA","","CHACARA PARREIRAL","SERRA","ES","29164360","(27)33282917","","","nome_teste","ESCOLAIRACEMA@SEDU.ES.GOV.BR"
1189,1,"EEEFM IRMA TEREZA ALTOE","municipal","32016662","12345678-0435",-18.9055808,-40.0759445,"RUA 13 DE DEZEMBRO","943","CENTRO","JAGUARE","ES","29950000","(27)37691520","","","nome_teste","ESCOLAIRMATEREZA@SEDU.ES.GOV.BR"
1190,1,"EEEFM ITAGIBA ESCOBAR","municipal","32034636","12345678-0218",-20.3258405,-40.3648187,"PRACA DA OFICINA","","SOTEMA","CARIACICA","ES","29147970","(27)33434688","","","nome_teste","ESCOLAITAGIBAESCOBAR@SEDU.ES.GOV.BR"
1191,1,"EEEFM JACARAIPE","municipal","32037180","12345678-0153",-20.3126089,-40.3208413,"RUA GUACIRA","713","JARDIM ATLANTICO","SERRA","ES","29175256","(27)32524019","","","nome_teste","ESCOLAJACARAIPE@SEDU.ES.GOV.BR"
1192,1,"EEEFM JANUARIO RIBEIRO","municipal","32013906","12345678-0292",-19.3819983,-40.0609567,"RODOVIA ANTIMO BERALDO DOS REIS","","VILA VERDE","PANCAS","ES","29752000","(27)37265124","","","nome_teste","ESCOLAJANUARIO@SEDU.ES.GOV.BR"
1193,1,"EEEFM JERONIMO MONTEIRO","municipal","32055510","12345678-0105",-20.7998508,-41.3952412,"RUA DANIEL COMBONI","200","CENTRO","JERONIMO MONTEIRO","ES","29550000","()","","","nome_teste","email@email.com"
1194,1,"EEEFM JESUS CRISTO REI","municipal","32034652","12345678-0219",-19.5439714,-40.6380718,"RUA LEANDRO DEL HOMO","","SAO FRANCISCO","CARIACICA","ES","29145405","(27)33435160","","","nome_teste","ESCOLAJESUSCRISTOREI@SEDU.ES.GOV.BR"
1195,1,"EEEFM JOAO BLEY","municipal","32054092","12345678-0097",-20.2240525,-40.2202880,"RUA MACHADO DE ASSIS","694","SAO MIGUEL","CASTELO","ES","29360000","(28)35422575","","","nome_teste","ESCOLAJOAOBLEY@SEDU.ES.GOV.BR"
1196,1,"EEEFM JOAO CRISOSTOMO BELESA","municipal","32034679","12345678-0220",-20.2643105,-40.4203022,"RUA SETOR DA CVRD","1132","PORTO DE SANTANA","CARIACICA","ES","29153580","(27)33434280/32161508","","","nome_teste","ESCOLAJOACRISOSTOMO@SEDU.ES.GOV.BR"
1197,1,"EEEFM JOAO NEIVA","municipal","32021550","12345678-0340",-18.7191329,-39.8355984,"RUA RUA LÚCIA COMETTI","97","CENTRO","JOAO NEIVA","ES","29680000","(27)32582086","","","nome_teste","email@email.com"
1198,1,"EEEFM JOAO XXIII","municipal","32000987","12345678-0043",-20.8510039,-41.1088649,"ALAMEDA JOAO XXIII","144","VILA PEREIRA","BARRA DE SAO FRANCISCO","ES","29800000","-27","","","nome_teste","ESCOLAJOAOXXIII@SEDU.ES.GOV.BR"
1199,1,"EEEFM JOAQUIM CAETANO DE PAIVA","municipal","32029594","12345678-0019",-19.8998865,-41.0625290,"RUA GUILHERME PIZZAIA","","JOATUBA","LARANJA DA TERRA","ES","29615000","(27)37365124","","","nome_teste","ESCOLAJOAQUIMPAIVA@SEDU.ES.GOV.BR"
1200,1,"EEEFM JOASSUBA","municipal","32003790","12345678-0056",-20.8582572,-41.1186238,"RUA PRINCIPAL","S/N","JOASSUBA","ECOPORANGA","ES","29850000","(27)37553064","","","nome_teste","ESCOLAJOASSUBA@SEDU.ES.GOV.BR"
1201,1,"EEEFM JOB PIMENTEL","federal","32004303","12345678-0059",-20.8506228,-41.1090145,"RUA JOAQUIM BATISTA DE SOUZA","","CENTRO","MANTENOPOLIS","ES","29770000","(27)37581270","","","nome_teste","ESCOLAJOBPIMENTEL@SEDU.ES.GOV.BR"
1202,1,"EEEFM JOSE CARLOS CASTRO","federal","32016387","12345678-0431",-18.5887887,-39.7365721,"AVENIDA GOVERNADOR VALADARES","","CENTRO","CONCEICAO DA BARRA","ES","29967000","()37624318","","","nome_teste","ESCOLAJOSECARLOS@SEDU.ES.GOV.BR"
1203,1,"EEEFM JOSE CORRENTE","federal","32046022","12345678-0301",-19.1902697,-40.0962862,"RUA LUCINDO RODRIGUES PINTO","183","CAFE","ALEGRE","ES","29515000","(28)35529024","","","nome_teste","ESCOLAJOSECORRENTE@SEDU.ES.GOV.BR"
1204,1,"EEEFM JOSÉ DAMASCENO FILHO","federal","32009461","12345678-0256",-19.5119294,-41.0208338,"RUA QUINTINO BOCAIUVA","442","SAPUCAIA","BAIXO GUANDU","ES","29730000","-27","","","nome_teste","ESCOLAJOSEDAMASCENO@SEDU.ES.GOV.BR"
1205,1,"EEEFM JOSE GIESTAS","federal","32027540","12345678-0003",-20.0783294,-41.1264490,"RUA WERNER RUCHDESCHEL","227","VILA PONTOES","AFONSO CLAUDIO","ES","29604000","(27)37355026","","","nome_teste","ESCOLA.JOSEGIESTAS@GMAIL.COM"
1206,1,"EEEFM JOSÉ PINTO COELHO","federal","32032951","12345678-0125",-20.1750200,-40.2081524,"AVENIDA BARÃO ORLANDO BONFIM","978","VILA NOVA","SANTA TERESA","ES","29650000","(27)32592022","","","nome_teste","ESCOLAJOSEPINTO@SEDU.ES.GOV.BR"
1207,1,"EEEFM JOSE ROBERTO CHRISTO","federal","32027206","12345678-0004",-20.1826686,-41.1939216,"RUA ALIPIO VIEIRA DA CUNHA","307","PIRACEMA","AFONSO CLAUDIO","ES","29600000","()","","","nome_teste","ESCOLAJOSEROBERTO@SEDU.ES.GOV.BR"
1208,1,"EEEFM JOSÉ TEIXEIRA FIALHO","federal","32003595","12345678-0057",-20.8542161,-41.0932577,"RUA PADRE LUIS TONI","S/N","IMBURANA","ECOPORANGA","ES","29850000","(27)37554024","","","nome_teste","ESCOLAJOSETEIXEIRA@SEDU.ES.GOV.BR"
1209,1,"EEEFM JOSE VITOR FILHO","federal","32034644","12345678-0221",-19.5348549,-40.6289448,"RUA EMILIO CHAGAS","","VILA INDEPENDENCIA","CARIACICA","ES","29148650","-27","","","nome_teste","ESCOLAJARDIMFELIZ@SEDU.ES.GOV.BR"
1210,1,"EEEFM JOSE ZAMPROGNO","federal","32007515","12345678-0383",-20.3272544,-40.2941675,"AVENIDA CARLOS KRAUSER","","ZONA RURAL","NOVA VENECIA","ES","29830000","()37724002","","","nome_teste","ESCOLAJOSEZAMPROGNO@SEDU.ES.GOV.BR"
1211,1,"EEEFM JOVENTINA SIMOES","federal","32043538","12345678-0463",-20.6721131,-40.5108483,"RUA ERNESTINA VIEIRA SIMOES","","OLARIA","GUARAPARI","ES","29202552","(27)33610911","","","nome_teste","ESCOLAJOVENTINA@SEDU.ES.GOV.BR"
1212,1,"EEEFM JUDITH DA SILVA GOES COUTINHO","federal","32039603","12345678-0489",-20.5107123,-40.3617899,"AVENIDA JUDITH GOES COUTINHO","","PONTA DA FRUTA","VILA VELHA","ES","29129030","(27)32421470","","","nome_teste","ESCOLAJUDITH@SEDU.ES.GOV.BR"
1213,1,"EEEFM JUVENAL NOLASCO","federal","32046383","12345678-0309",-20.6205730,-41.6852213,"RUA ADOLFO BATISTA","83","CENTRO","DIVINO DE SAO LOURENCO","ES","29590000","(28)35511071","","","nome_teste","ESCOLAJUVENAL@SEDU.ES.GOV.BR"
1214,1,"EEEFM LARANJEIRAS","federal","32037350","12345678-0154",-20.1844915,-40.2690603,"AVENIDA CEL MANOEL NUNES","LARANJEIRAS","LARANJEIRAS VELHA","SERRA","ES","29162010","(27)33280147","","","nome_teste","ESCOLALARANJEIRAS@SEDU.ES.GOV.BR"
1215,1,"EEEFM LEANDRO ESCOBAR","federal","32043546","12345678-0464",-20.6741197,-40.4997382,"RUA MANOEL ALVARENGA","","PEROCAO","GUARAPARI","ES","29220525","(27)32621019","","","nome_teste","ESCOLALEANDROESCOBAR@SEDU.ES.GOV.BR"
1216,1,"EEEFM LEOPOLDINO ROCHA","federal","32059906","12345678-0103",-20.1443157,-40.2930511,"RUA MAURICIO DE SOUZA SILVA","","ITAIPAVA","ITAPEMIRIM","ES","29338000","(28)35291282","","","nome_teste","ESCOLALEOPOLDINO@SEDU.ES.GOV.BR"
1217,1,"EEEFM LICEU MUNIZ FREIRE","federal","32052731","12345678-0082",-21.0636064,-41.3678282,"RUA MOREIRA","171","CORONEL BORGES","CACHOEIRO DE ITAPEMIRIM","ES","29306017","-28","","","nome_teste","ESCOLALICEU@SEDU.ES.GOV.BR"
1218,1,"EEEFM LIONS CLUB DE COLATINA","federal","32010648","12345678-0265",-19.5439736,-40.6278546,"AVENIDA ROSEIRAS","","MOACIR BROTAS","COLATINA","ES","29701680","(27)98262677/37229193","","","nome_teste","ESCOLALIONS@SEDU.ES.GOV.BR"
1219,1,"EEEFM LIONS SEBASTIAO PAIVA VIDAURRE","federal","32052405","12345678-0083",-20.8327320,-41.1558450,"RUA PACIFICO PEZZODIPANE","S/N","LUIZ TINOCO DA FONSECA","CACHOEIRO DE ITAPEMIRIM","ES","29313235","(28)35215276","","","nome_teste","ESCOLALIONSPAIVA@SEDU.ES.GOV.BR"
1220,1,"EEEFM LUIZ JOUFFROY","federal","32029438","12345678-0020",-19.8998865,-41.0625290,"AVENIDA CARLOS PALACIO","264","CENTRO","LARANJA DA TERRA","ES","29615000","(27)37361375","","","nome_teste","ESCOLALUIZ@SEDU.ES.GOV.BR"
1221,1,"EEEFM LUIZ MANOEL VELLOZO","federal","32038500","12345678-0490",-20.3340746,-40.3126171,"RUA MOURISCO","","GLORIA","VILA VELHA","ES","29122070","(27)33394103","","","nome_teste","ESCOLALUIZMANOEL@SEDU.ES.GOV.BR"
1222,1,"EEEFM LYRA RIBEIRO SANTOS","federal","32043694","12345678-0465",-20.6741197,-40.4997382,"RUA WALTRUDES ALVES ROSA","","KUBITSCHEK","GUARAPARI","ES","29203150","(27)33614139","","","nome_teste","LYRARIBEIRO@OUTLOOK.COM.BR"
1223,1,"EEEFM MAJOR ALFREDO PEDRO RABAIOLI","federal","32040725","12345678-0182",-20.3465562,-40.3882396,"AVENIDA DARIO LOURENCO DE SOUZA","752","MARIO CYPRESTE","VITORIA","ES","29026080","(27)33223459","","","nome_teste","ESCOLAPEDRORABAIOLI@SEDU.ES.GOV.BR"
1224,1,"EEEFM MANOEL SALUSTIANO DE SOUZA","federal","32024550","12345678-0349",-20.6668702,-40.4951070,"AVENIDA JOSE TESCH SOBRINHO","","SAO RAFAEL","LINHARES","ES","29918010","-27","","","nome_teste","ESCOLAMANOELSOUZA@SEDU.ES.GOV.BR"
1225,1,"EEEFM MARACANA","federal","32073445","12345678-0222",-19.5337714,-40.6290172,"RUA ONZE","","MARACANA","CARIACICA","ES","29142859","(27)33366795","","","nome_teste","ESCOLANEASALLES@SEDU.ES.GOV.BR"
1226,1,"EEEFM MARCILIO DIAS","federal","32039565","12345678-0491",-20.4255148,-40.3257811,"RUA JOAO COUTINHO","","BARRA DO JUCU","VILA VELHA","ES","29125030","(27)32601019","","","nome_teste","ESCOLAMARCILIODIAS@SEDU.ES.GOV.BR"
1227,1,"EEEFM MARIA ANGELICA MARANGONI SANTANA","federal","32052421","12345678-0084",-20.8467047,-41.1202199,"RUA SARGENTO VALDEMIR R SIMOES","S/N","ZUMBI","CACHOEIRO DE ITAPEMIRIM","ES","29302360","()35215780","","","nome_teste","ESCOLAMARIAANGELICA@SEDU.ES.GOV.BR"
1228,1,"EEEFM MARIA DE ABREU ALVIM","federal","32027567","12345678-0005",-20.0783294,-41.1264490,"RUA ANTONIETA SOUZA LIMA","","FAZENDA GUANDU","AFONSO CLAUDIO","ES","29609000","(27)37358056/97599343","","","nome_teste","ESCOLAMARIADEABREU@SEDU.ES.GOV.BR"
1229,1,"EEEFM MARIA DE LOURDES POYARES LABUTO","federal","32033796","12345678-0223",-19.5251927,-40.6298527,"RUA I","","TABAJARA","CARIACICA","ES","29155000","(27)33860263","","","nome_teste","ESCOLAMARIADELOURDES@SEDU.ES.GOV.BR"
1230,1,"EEEFM MARIA DE NOVAES PINHEIRO","federal","32037775","12345678-0248",-20.3646691,-40.4274631,"RUA SANTA HELENA","125","VILA BETHANIA","VIANA","ES","29135000","(27)33367687","","","nome_teste","ESCOLAMARIADENOVAES@SEDU.ES.GOV.BR"
1231,1,"EEEFM MARIA JOSE ZOUAIN DE MIRANDA","federal","32036477","12345678-0155",-20.2978212,-40.2943103,"AVENIDA GUARAPARI","","JARDIM LIMOEIRO","SERRA","ES","29164120","(27)33288976","","","nome_teste","ESCOLAMARIAJOSE@SEDU.ES.GOV.BR"
1232,1,"EEEFM MARIA ORTIZ","federal","32040733","12345678-0183",-20.3201218,-40.3399774,"RUA FRANCISCO ARAUJO","35","CENTRO","VITORIA","ES","29015090","-27","","","nome_teste","ESCOLAMARIAORTIZ@SEDU.ES.GOV.BR"
1233,1,"EEEFM MARIA PENEDO","federal","32036191","12345678-0156",-20.3097191,-40.2952242,"AVENIDA GUARAPARI","","VALPARAISO","SERRA","ES","29160010","(27)33284480","","","nome_teste","ESCOLAMPENEDO@SEDU.ES.GOV.BR"
1234,1,"EEEFM MARIANO FIRME DE SOUZA","federal","32034741","12345678-0224",-19.5218956,-40.6355687,"RUA PEDRO I","21","BANDEIRANTES","CARIACICA","ES","29142100","(27)33262315","","","nome_teste","ESCOLAMARIANOFIRME@SEDU.ES.GOV.BR"
1235,1,"EEEFM MARINETE DE SOUZA LIRA","federal","32036205","12345678-0157",-20.2469207,-40.2715030,"RUA VITORIA-REGIA","","FEU ROSA","SERRA","ES","29172075","(27)32433171","","","nome_teste","ESCOLAMARINETE@SEDU.ES.GOV.BR"
1236,1,"EEEFM MARINGA","federal","32036213","12345678-0158",-20.3384795,-40.3728625,"RUA DEZESSETE","","MARINGA","SERRA","ES","29168308","(27)88772786/33187556","","","nome_teste","ESCOLAMARINGA@SEDU.ES.GOV.BR"
1237,1,"EEEFM MARITA MOTTA SANTOS","federal","32018100","12345678-0449",-18.7180671,-39.8598980,"RUA RAIMUNDO GUILHERME SOBRINHO","433","CENTRO","SAO MATEUS","ES","29930050","-27","","","nome_teste","ESCOLAMARITAMOTTA@SEDU.ES.GOV.BR"
1238,1,"EEEFM MERCES GARCIA VIEIRA","federal","32058268","12345678-0329",-21.0279344,-41.6640232,"AVENIDA RUI BARBOSA","146","CENTRO","SAO JOSE DO CALCADO","ES","29470000","(28)35561662","","","nome_teste","ESCOLAMERCESGARCIA@SEDU.ES.GOV.BR"
1239,1,"EEEFM MESTRE ALVARO","federal","32036221","12345678-0159",-20.3594397,-40.3638911,"AVENIDA RIO DOCE","","ELDORADO","SERRA","ES","29169400","(27)33411432","","","nome_teste","ESCOLAMESTREALVARO@SEDU.ES.GOV.BR"
1240,1,"EEEFM MONSENHOR ELIAS TOMASI","federal","32055838","12345678-0111",-20.2362325,-40.2780360,"PRACA DEP EVALDO RIBEIRO CASTRO","","CENTRO","MIMOSO DO SUL","ES","29400000","-28","","","nome_teste","ESCOLAELIASTOMASI@SEDU.ES.GOV.BR"
1241,1,"EEEFM MONSENHOR GUILHERME SCHMITZ","federal","32019807","12345678-0333",-19.8220009,-40.2827748,"RUA ARISTIDES BITTI","350","DE CARLI","ARACRUZ","ES","29194006","(27)32563215","","","nome_teste","ESCOLAMONSENHOR@HOTMAIL.COM"
1242,1,"EEEFM NAIR MIRANDA","federal","32020910","12345678-0123",-19.9371448,-40.4038686,"RUA VICENTE FERNANDES DE OLIVEIRA","38","CENTRO","FUNDAO","ES","29185000","-27","","","nome_teste","ESCOLANAIRMIRANDA@SEDU.ES.GOV.BR"
1243,1,"EEEFM NARCEU DE PAIVA FILHO","federal","32021194","12345678-0337",-18.7209716,-39.8727511,"RUA DANIEL COMBONI","51","CENTRO","IBIRACU","ES","29670000","(27)32572632","","","nome_teste","ESCOLANARCEUPAIVA@SEDU.ES.GOV.BR"
1244,1,"EEEFM NELSON MANDELA","federal","32081316","12345678-0249",-20.3646691,-40.4274631,"RODOVIA BR 262", KM 19","CABRAL","VIANA","ES","29100000","(27)33333333","","","nome_teste","email@email.com"
1245,1,"EEEFM NELSON VIEIRA PIMENTEL","federal","32037791","12345678-0250",-20.3646691,-40.4274631,"RUA DR OLIVAL PIMENTEL","124","CENTRO","VIANA","ES","29135000","(27)32551337","","","nome_teste","ESCOLANELSONVIEIRA@SEDU.ES.GOV.BR"
1246,1,"EEEFM NESTOR GOMES","federal","32019459","12345678-0450",-18.7380516,-40.2231238,"RUA CAMILO SILVA","","NESTOR GOMES","SAO MATEUS","ES","29949020","-27","","","nome_teste","ESCOLANESTORGOMES@SEDU.ES.GOV.BR"
1247,1,"EEEFM NEWTRO FERREIRA DE ALMEIDA","federal","32052499","12345678-0085",-20.8467047,-41.1202199,"RUA AGUILAR FERREIRA ATHAYDE","83","MONTE BELO","CACHOEIRO DE ITAPEMIRIM","ES","29314775","()35111727","","","nome_teste","ESCOLANEWTRO@SEDU.ES.GOV.BR"
1248,1,"EEEFM NOSSA SENHORA APARECIDA","federal","32034784","12345678-0225",-19.5440812,-40.6274518,"RUA PAULICEIA","","ORIENTE","CARIACICA","ES","29150550","(27)33433508","","","nome_teste","ESCOLAAPARECIDA@SEDU.ES.GOV.BR"
1249,1,"EEEFM NOSSA SENHORA DA SAUDE","federal","32021259","12345678-0338",-18.7180671,-39.8598980,"RUA DANIEL COMBONI","19","CENTRO","IBIRACU","ES","29670000","-27","","","nome_teste","email@email.com"
1250,1,"EEEFM NOSSA SRA DA CONCEICAO","federal","32022204","12345678-0350",-20.6721131,-40.5108483,"AVENIDA PAULO","28","AVISO","LINHARES","ES","29901150","-27","","","nome_teste","ESCOLACONCEICAO@SEDU.ES.GOV.BR"
1251,1,"EEEFM NOVA CARAPINA","federal","32036442","12345678-0160",-20.1534765,-40.2660460,"RUA PATOS DE MINAS","","NOVA CARAPINA II","SERRA","ES","29170197","()33413227","","","nome_teste","ESCOLANOVACARAPINA@SEDU.ES.GOV.BR"
1252,1,"EEEFM OLAVO RODRIGUES DA COSTA","federal","32048106","12345678-0316",-20.5471088,-41.6671129,"RUA GERALDO DE OLIVEIRA BARBOSA","","CENTRO","IBITIRAMA","ES","29545000","(28)35693128","","","nome_teste","ESCOLAOLAVOCOSTA@SEDU.ES.GOV.BR"
1253,1,"EEEFM OLEGARIO MARTINS","federal","32000480","12345678-0033",-18.5487000,-40.9857951,"RUA ANTONIO VITORINO DE OLIVEIRA","","SANTA LUZIA DO AZUL","AGUA DOCE DO NORTE","ES","29823000","(27)37597024","","","nome_teste","ESCOLAOLEGARIO@SEDU.ES.GOV.BR"
1254,1,"EEEFM OSCAR DE ALMEIDA GAMA","federal","32045867","12345678-0302",-20.5931571,-41.5574261,"RUA HUGO FURTADO","","ARARAI","ALEGRE","ES","29535000","(28)35640212","","","nome_teste","ESCOLAOSCARALMEIDA@SEDU.ES.GOV.BR"
1255,1,"EEEFM P AFONSO BRAZ","federal","32049242","12345678-0321",-20.3536240,-41.5338333,"AVENIDA PREFEITO JOSE RAPOSO","84","PEQUIA","IUNA","ES","29392000","(28)35456135","","","nome_teste","ESCOLAPADREAFONSO@SEDU.ES.GOV.BR"
1256,1,"EEEFM P HUMBERTO PIACENTE","federal","32039875","12345678-0492",-20.3477821,-40.2949528,"RUA ANA SIQUEIRA","","ALECRIM","VILA VELHA","ES","29117310","(27)33265479","","","nome_teste","ESCOLAPADREHUMBERTO@SEDU.ES.GOV.BR"
1257,1,"EEEFM PADRE ANTONIO VOLKERS","federal","32012713","12345678-0290",-19.4118439,-40.5460302,"AVENIDA DOM BOSCO","782","CENTRO","MARILANDIA","ES","29725000","-27","","","nome_teste","ESCOLAPADREANTONIO@SEDU.ES.GOV.BR"
1258,1,"EEEFM PADRE MANOEL DA NOBREGA","federal","32014775","12345678-0372",-20.4674253,-40.4593419,"AVENIDA PRESIDENTE KENNEDY","190","CENTRO","MONTANHA","ES","29894000","(27)37545180","","","nome_teste","ESCOLAPADREMANOEL@SEDU.ES.GOV.BR"
1259,1,"EEEFM PALMERINDO VIEIRA CAMPOS","federal","32004532","12345678-0060",-18.8619015,-41.1215853,"RUA JOSE MOREIRA FILHO","","SANTA LUZIA","MANTENOPOLIS","ES","29772000","(27)37584035","","","nome_teste","ESCOLAPALMERINDO@SEDU.ES.GOV.BR"
1260,1,"EEEFM PASTOR ANTONIO NUNES DE CARVALHO","federal","32009038","12345678-0253",-19.0622799,-41.0212946,"RUA PAULO BRUNO","","CENTRO","ALTO RIO NOVO","ES","29760000","(27)37461252","","","nome_teste","ESCOLAPASTORANTONIO@SEDU.ES.GOV.BR"
1261,1,"EEEFM PEDREIRAS","federal","32028806","12345678-0016",-20.3607970,-40.6598105,"RUA PETERLE","","PEDRA AZUL","DOMINGOS MARTINS","ES","29278000","(27)32481312","","","nome_teste","ESCOLAPEDREIRAS@SEDU.ES.GOV.BR"
1262,1,"EEEFM PEDRO DE ALCANTARA GALVEAS","federal","32046634","12345678-0310",-18.8364534,-40.7188237,"AVENIDA FIRMINO DIAS","360","CENTRO","DORES DO RIO PRETO","ES","29580000","(28)99324893/35591165","","","nome_teste","ESCOLAPEDROGALVEAS@SEDU.ES.GOV.BR"
1263,1,"EEEFM PIO XII","federal","32018061","12345678-0451",-18.7191329,-39.8355984,"RUA CORONEL CONSTANTINO CUNHA","1890","CENTRO","SAO MATEUS","ES","29930360","(27)37671157","","","nome_teste","ESCOLAPIO12@SEDU.ES.GOV.BR"
1264,1,"EEEFM POLIVALENTE DE LINHARES I","federal","32022212","12345678-0351",-19.3871139,-40.0616719,"AVENIDA PRESIDENTE CAFE FILHO","546","NOVO HORIZONTE","LINHARES","ES","29903350","(27)33731526","","","nome_teste","ESCOLALINHARES@SEDU.ES.GOV.BR"
1265,1,"EEEFM PRESIDENTE CASTELO BRANCO","federal","32034814","12345678-0226",-19.5199792,-40.6466658,"RUA SESI","","PORTO DE SANTANA","CARIACICA","ES","29153076","(27)33965893","","","nome_teste","ESCOLACASTELOBRANCO@SEDU.ES.GOV.BR"
1266,1,"EEEFM PRESIDENTE GETULIO VARGAS","federal","32052529","12345678-0086",-21.1009222,-41.0464146,"RUA JOAO FRANKLIN MACHADO","","ABELARDO FERREIRA MACHADO","CACHOEIRO DE ITAPEMIRIM","ES","29309274","(28)35216028","","","nome_teste","ESCOLAGETULIOVARGAS@SEDU.ES.GOV.BR"
1267,1,"EEEFM PRESIDENTE KENNEDY","federal","32060920","12345678-0116",-20.1407214,-40.2451617,"RUA MANOEL LUCIO GOMES","20","CENTRO","PRESIDENTE KENNEDY","ES","29350000","()","","","nome_teste","email@email.com"
1268,1,"EEEFM PRESIDENTE LUEBKE","federal","32058918","12345678-0120",-20.2051594,-40.2469777,"RUA ALBERTO DO CARMO","70","CENTRO","VARGEM ALTA","ES","29295000","-28","","","nome_teste","ESCOLALUEBKE@SEDU.ES.GOV.BR"
1269,1,"EEEFM PRIMO BITTI","federal","32020643","12345678-0334",-18.3009309,-39.9556123,"RUA PALMEIRAS","","COQUEIRAL","ARACRUZ","ES","29199135","(27)32501031","","","nome_teste","EEEFMPRIMOBITTI@SEDU.ES.GOV.BR"
1270,1,"EEEFM PROF ANA PORTELA DE SA","federal","32006330","12345678-0419",-18.6095681,-40.6093729,"RUA ADELAIDE RAMLOW","S/N","ONDINA","VILA PAVAO","ES","29843000","-27","","","nome_teste","ESCOLAANAPORTELA@SEDU.ES.GOV.BR"
1271,1,"EEEFM PROF APARICIO ALVARENGA","federal","32020023","12345678-0335",-18.7203586,-39.8600346,"AVENIDA AURELIO ALVARENGA","102","GUARANA","ARACRUZ","ES","29195421","-27","","","nome_teste","ESCOLAAPARICIO@SEDU.ES.GOV.BR"
1272,1,"EEEFM PROF ASCENDINA FEITOSA","federal","32001916","12345678-0044",-20.8561142,-41.1051079,"RUA vila paulista","","VILA PAULISTA","BARRA DE SAO FRANCISCO","ES","29815000","-27","","","nome_teste","ESCOLAPROFASCENDINA@SEDU.ES.GOV.BR"
1273,1,"EEEFM PROF AUGUSTO LUCIANO","federal","32033931","12345678-0227",-20.2643105,-40.4203022,"PRACA LUIZ BEZERRA SOBRINHO","","CARIACICA SEDE","CARIACICA","ES","29156970","(27)32542579","","","nome_teste","ESCOLAAUGUSTO@SEDU.ES.GOV.BR"
1274,1,"EEEFM PROF CARLOS MENDES","federal","32012438","12345678-0272",-19.2519653,-40.4624541,"RUA ALVINO PAULO PEREIRA","883","NOVO BRASIL","GOVERNADOR LINDENBERG","ES","29720000","(27)37443108","","","nome_teste","ESCOLACARLOSMENDES@SEDU.ES.GOV.BR"
1275,1,"EEEFM PROF CELIA TEIXEIRA DO CARMO","federal","32046197","12345678-0303",-18.5387192,-40.2933838,"RUA THEODORO PINTO DE SOUZA","","RIVE","ALEGRE","ES","29520000","(28)35528260","","","nome_teste","ESCOLACELIACARMO@SEDU.ES.GOV.BR"
1276,1,"EEEFM PROF CLAUDIONOR RIBEIRO","federal","32052545","12345678-0087",-20.8637530,-40.9377390,"RUA BERNARDO DE ALMEIDA","S/N","MARIA ORTIZ","CACHOEIRO DE ITAPEMIRIM","ES","29301470","-28","","","nome_teste","ESCOLACLAUDIONOR@SEDU.ES.GOV.BR"
1277,1,"EEEFM PROF FILOMENA QUITIBA","federal","32044747","12345678-0471",-20.8416467,-40.7265783,"RUA MIMOSO DO SUL","884","CENTRO","PIUMA","ES","29285000","()","","","nome_teste","email@email.com"
1278,1,"EEEFM PROF GERALDO COSTA ALVES","federal","32038534","12345678-0493",-20.3526622,-40.3008199,"RUA RUBEM BRAGA","","BOA VISTA I","VILA VELHA","ES","29102640","(27)33393335","","","nome_teste","ESCOLAGERALDO@SEDU.ES.GOV.BR"
1279,1,"EEEFM PROF HILDA MIRANDA NASCIMENTO","federal","32036582","12345678-0161",-20.2821125,-40.3714519,"AVENIDA BRASILIA","","PORTO CANOA","SERRA","ES","29168600","(27)33414763","","","nome_teste","ESCOLAHILDAMIRANDA@SEDU.ES.GOV.BR"
1280,1,"EEEFM PROF HOSANA SALLES","federal","32052618","12345678-0088",-20.8326100,-41.1743970,"RUA HUMBERTO TIRELLO","2","AEROPORTO","CACHOEIRO DE ITAPEMIRIM","ES","29314110","-28","","","nome_teste","ESCOLAHOSANASALLES@SEDU.ES.GOV.BR"
1281,1,"EEEFM PROF JOÃO LOYOLA","federal","32035519","12345678-0162",-20.3102987,-40.3660642,"RUA BARNABE DO NASCIMENTO NEVES","","SERRA CENTRO","SERRA","ES","29176035","(27)32512738","","","nome_teste","ESCOLAJOAOLOYOLA@SEDU.ES.GOV.BR"
1282,1,"EEEFM PROF JOAQUIM BARBOSA QUITIBA","federal","32035080","12345678-0228",-19.5386266,-40.6342228,"RUA CLARICIO ALVES RIBEIRO","138","ITANGUA","CARIACICA","ES","29149800","(27)33366403","","","nome_teste","ESCOLAJOAQUIMBARBOSA@SEDU.ES.GOV.BR"
1283,1,"EEEFM PROF JURACI MACHADO","federal","32036493","12345678-0163",-20.3842956,-40.3689355,"AVENIDA SANTAREM","","BARCELONA","SERRA","ES","29166400","(27)33412179","","","nome_teste","ESCOLAJURACYMACHADO@SEDU.ES.GOV.BR"
1284,1,"EEEFM PROF LUIZA BASTOS FARIA","federal","32017529","12345678-0441",-18.3009253,-39.9578171,"AVENIDA FRANCISCO PORFIRIO DE SOUZA","","CRISTAL DO NORTE","PEDRO CANARIO","ES","29978000","-27","","","nome_teste","ESCOLALUIZABASTOS@SEDU.ES.GOV.BR"
1285,1,"EEEFM PROF MANOEL ABREU","federal","32022778","12345678-0353",-20.6736703,-40.5031733,"AVENIDA BENEVENUTO ZORZANELLI","1488","BEBEDOURO","LINHARES","ES","29915115","(27)33730031","","","nome_teste","ESCOLAPROFMANOEL@SEDU.ES.GOV.BR"
1286,1,"EEEFM PROF MARIA MAGDALENA DA SILVA","federal","32015070","12345678-0397",-18.1236627,-40.5420969,"RUA ACRE","40","VILA NOVA","PONTO BELO","ES","29885000","(27)37571342","","","nome_teste","ESCOLAMARIASILVA@SEDU.ES.GOV.BR"
1287,1,"EEEFM PROF MARIA OLINDA DE OLIVEIRA MENEZES","federal","32065370","12345678-0164",-20.3268314,-40.3922451,"AVENIDA ARABIAS","","CIDADE CONTINENTAL-SETOR AFRICA","SERRA","ES","29163480","-27","","","nome_teste","ESCOLAMARIAOLINDA@SEDU.ES.GOV.BR"
1288,1,"EEEFM PROF MARIA PENEDO","federal","32034857","12345678-0230",-20.2643105,-40.4203022,"RUA POLIVALENTE","","ITACIBA","CARIACICA","ES","29150430","(27)32264492/33433620","","","nome_teste","PROFMARIAPENEDO@SEDU.ES.GOV.BR"
1289,1,"EEEFM PROF MARIA TRINDADE OLIVEIRA","federal","32047720","12345678-0314",-18.3180121,-40.4064334,"AVENIDA AFONSO CLAUDIO","440","CENTRO","IBATIBA","ES","29395000","(28)35431594/35431594","","","nome_teste","ESCOLAMARIAOLIVEIRA@SEDU.ES.GOV.BR"
1290,1,"EEEFM PROF MAURA ABAURRE","federal","32039417","12345678-0494",-20.3613409,-40.3075712,"RUA ONZE","100","VILA NOVA","VILA VELHA","ES","29105110","-27","","","nome_teste","ESCOLAMAURAABAURRE@SEDU.ES.GOV.BR"
1291,1,"EEEFM PROF PETRONILHA VIDIGAL","federal","32052847","12345678-0089",-20.7291130,-41.1341437,"RUA BRAZ VIVACQUA","40","CENTRO","CACHOEIRO DE ITAPEMIRIM","ES","29325000","(28)35391259","","","nome_teste","ESCOLAPETRONILHA@SEDU.ES.GOV.BR"
1292,1,"EEEFM PROF. SANTOS PINTO","federal","32011717","12345678-0273",-19.2528948,-40.4623943,"RUA JOÃO DALFIOR","226","GOVERNADOR LINDENBERG","GOVERNADOR LINDENBERG","ES","29720000","(27)37445030","","","nome_teste","ESCOLASANTOSPINTO@SEDU.ES.GOV.BR"
1293,1,"EEEFM PROFª ALDY SOARES MERCON VARGAS","federal","32028059","12345678-0013",-20.3559275,-41.2425713,"PRACA DA MATRIZ","9","CENTRO","CONCEICAO DO CASTELO","ES","29370000","(28)35471030","","","nome_teste","ESCOLAALDY@SEDU.ES.GOV.BR"
1294,1,"EEEFM PROFª ALEYDE COSME","federal","32031289","12345678-0282",-19.875487,-40.8755656,"RUA VALENTIN DE MARTIN","303","CENTRO","ITARANA","ES","29620000","(27)37201030","","","nome_teste","ESCOLAALEYDE@SEDU.ES.GOV.BR"
1295,1,"EEEFM PROFª MARIA DE LOURDES SANTOS SILVA","federal","32035063","12345678-0229",-20.3294652,-40.3682958,"RUA ANTONIO SILVERIO DIAS","","ALTO LAJE","CARIACICA","ES","29151340","(27)32361208","","","nome_teste","ESCOLAMARIALOURDES@SEDU.ES.GOV.BR"
1296,1,"EEEFM PROFª NÉA MONTEIRO COSTA","federal","32010699","12345678-0267",-20.3379800,-41.3874505,"AVENIDA ANTÔNIO PERUTTI","S/Nº","HONORIO FRAGA","COLATINA","ES","29704670","(27)37213980","","","nome_teste","ESCOLANEACOSTA@SEDU.ES.GOV.BR"
1297,1,"EEEFM PROFª REGINA BANHOS PAIXAO","federal","32022158","12345678-0354",-20.6651019,-40.5123168,"RUA DINORAH ALMEIDA RODRIGUES","","LINHARES V","LINHARES","ES","29905360","(27)33732122","","","nome_teste","ESCOLAREGINA@SEDU.ES.GOV.BR"
1298,1,"EEEFM PROFESSOR DOMINGOS UBALDO","federal","32053622","12345678-0090",-20.6784706,-41.2076222,"RUA RORONEL FRANCISCO ATHAYDE","","ZONA RURAL","CACHOEIRO DE ITAPEMIRIM","ES","29329000","(28)35395140","","","nome_teste","nome_teste"
1299,1,"EEEFM PROFESSOR ELPIDIO CAMPOS DE OLIVEIRA","federal","32014627","12345678-0373",-20.3362624,-40.3312410,"RUA ANTONIO PAULINO","1085","CENTRO","MONTANHA","ES","29890000","-27","","","nome_teste","ESCOLAELPIDIO@SEDU.ES.GOV.BR"
1300,1,"EEEFM PROFESSOR JOSE LEAO NUNES","particular","32035098","12345678-0231",-19.2209966,-40.5934257,"AVENIDA PERIMETRAL","","VALE DA ESPERANCA","CARIACICA","ES","29141010","(27)33265635","","","nome_teste","ESCOLAJOSELEAONUNES@SEDU.ES.GOV.BR"
1301,1,"EEEFM PROFESSOR PEDRO SIMAO","particular","32045360","12345678-0304",-18.4159105,-40.3805976,"RUA ANTONIO LEMOS BARBOSA","","VILA DO SUL","ALEGRE","ES","29500000","(28)35524040","","","nome_teste","ESCOLAPEDROSIMAO@SEDU.ES.GOV.BR"
1302,1,"EEEFM QUINTILIANO DE AZEVEDO","particular","32052634","12345678-0091",-20.8467047,-41.1202199,"RUA SAMUEL DUARTE","","SANTO ANTONIO","CACHOEIRO DE ITAPEMIRIM","ES","29300550","-28","","","nome_teste","ESCOLAQUINTILIANO@SEDU.ES.GOV.BR"
1303,1,"EEEFM ROMULO CASTELLO","particular","32036523","12345678-0165",-20.1215224,-40.3077898,"RUA DA INDEPENDENCIA","S/N","CARAPINA GRANDE","SERRA","ES","29160050","-27","","","nome_teste","ESCOLAROMULOCASTELLO@SEDU.ES.GOV.BR"
1304,1,"EEEFM ROSA MARIA REIS","particular","32064870","12345678-0232",-20.2782458,-40.4003656,"AVENIDA VIRGILIO FRANCISCO SCHWAB","","PORTO DE CARIACICA","CARIACICA","ES","29156603","()30966351/32544729","","","nome_teste","ESCOLAROSAMARIA@SEDU.ES.GOV.BR"
1305,1,"EEEFM RUBENS RANGEL","particular","32010753","12345678-0268",-20.4627004,-41.4132591,"RUA PEDRO II","128","ESPLANADA","COLATINA","ES","29702715","(27)37211423","","","nome_teste","ESCOLARUBENS@SEDU.ES.GOV.BR"
1306,1,"EEEFM SANTO ANTONIO","particular","32018096","12345678-0452",-18.7209814,-39.8808220,"RUA COPA 70","145","SANTO ANTONIO","SAO MATEUS","ES","29941620","(27)97178822/37634363","","","nome_teste","ESCOLASANTOANTONIO@SEDU.ES.GOV.BR"
1307,1,"EEEFM SÃO DOMINGOS","particular","32014236","12345678-0295",-19.3608449,-40.0529978,"RUA THEREZA FIORENTINI","98","CENTRO","SAO DOMINGOS DO NORTE","ES","29745000","(27)37421265","","","nome_teste","ESCOLASAODOMINGOS@SEDU.ES.GOV.BR"
1308,1,"EEEFM SAO GABRIEL DA PALHA","particular","32007876","12345678-0402",-19.0186736,-40.5368682,"RUA JOAO IZOTON FILHO KM 05","S/N","SAO VICENTE","SAO GABRIEL DA PALHA","ES","29780000","(27)37271953","","","nome_teste","JACI_SW@HOTMAIL.COM"
1309,1,"EEEFM SAO JOAO BATISTA - CARIACICA","particular","32034040","12345678-0233",-20.2636930,-40.4169321,"RODOVIA JOSE SETTE","","SAO JOAO BATISTA","CARIACICA","ES","29156315","(27)32542714","","","nome_teste","ESCOLASAOJOAO@SEDU.ES.GOV.BR"
1310,1,"EEEFM SAO JOAO DO SOBRADO","particular","32015550","12345678-0393",-18.3180121,-40.4064334,"RUA ANA ATAIDES","285","SAO JOAO DO SOBRADO","PINHEIROS","ES","29985000","(27)37655265","","","nome_teste","ESCOLASOBRADO@SEDU.ES.GOV.BR"
1311,1,"EEEFM SAO JORGE","particular","32026846","12345678-0012",-19.9809765,-41.2841101,"RUA NEPHTALY ANTONIO CAETANO","160","SAO JORGE DE OLIVEIRA","BREJETUBA","ES","29635000","(27)37334026","","","nome_teste","ESCOLASAOJORGE@SEDU.ES.GOV.BR"
1312,1,"EEEFM SAO JOSE - DORES DO RIO PRETO","particular","32046642","12345678-0311",-20.6936092,-41.8409349,"RUA PRINCIPAL","","PEDRA MENINA","DORES DO RIO PRETO","ES","29580000","-28","","","nome_teste","ESCOLASAOJOSE@SEDU.ES.GOV.BR"
1313,1,"EEEFM SAO LUIS","particular","32032234","12345678-0027",-20.0257850,-40.7443164,"RUA HENRIQUE JJ KUSTER","355","SAO LUIS","SANTA MARIA DE JETIBA","ES","29645000","(27)32631665/98096668","","","nome_teste","ESCOLASAOLUIS@SEDU.ES.GOV.BR"
1314,1,"EEEFM SATURNINO RANGEL MAURO","particular","32033940","12345678-0234",-19.8035987,-40.8561092,"RUA SESSENTA E UM","58","NOVA ROSA DA PENHA I","CARIACICA","ES","29157432","()32542210","","","nome_teste","ESCOLASATURNINO@SEDU.ES.GOV.BR"
1315,1,"EEEFM SEBASTIANA GRILO","particular","32013728","12345678-0293",-19.1613854,-40.7737654,"RUA AMAZONAS","20","LAGINHA","PANCAS","ES","29755000","(27)37264180","","","nome_teste","ESCOLASEBASTIANA@SEDU.ES.GOV.BR"
1316,1,"EEEFM SEBASTIAO COIMBRA ELIZEU","particular","32000057","12345678-0034",-18.4917998,-40.8118693,"RUA ALMIRANTE BARROSO","S/Nº","CENTRO","AGUA DOCE DO NORTE","ES","29820000","(27)37591252","","","nome_teste","ESCOLASEBASTIAO@SEDU.ES.GOV.BR"
1317,1,"EEEFM SENADOR DIRCEU CARDOSO","particular","32057504","12345678-0115",-20.9513517,-41.3463871,"RUA HUMBERTO BERTASSONI","","SAO FRANCISCO","MUQUI","ES","29480000","-28","","","nome_teste","ESCOLASENADORDIRCEU@SEDU.ES.GOV.BR"
1318,1,"EEEFM SERRA SEDE","particular","32080735","12345678-0166",-20.2839510,-40.3656862,"AVENIDA GETULIO VARGAS","192","SERRA CENTRO","SERRA","ES","29176090","()","","","nome_teste","email@email.com"
1319,1,"EEEFM SILVIO EGITO SOBRINHO","particular","32037260","12345678-0167",-20.1215224,-40.3077898,"AVENIDA PRINCIPAL","","SOLAR DE ANCHIETA","SERRA","ES","29162831","(27)33284404","","","nome_teste","ESCOLASILVIOEGITO@SEDU.ES.GOV.BR"
1320,1,"EEEFM SILVIO ROCIO","particular","32039883","12345678-0495",-20.3302725,-40.3491529,"RUA TEREZINHA","","SAO TORQUATO","VILA VELHA","ES","29114002","(27)32266523","","","nome_teste","ESCOLASILVIOROCIO@SEDU.ES.GOV.BR"
1321,1,"EEEFM SIRENA REZENDE FONSECA","particular","32046103","12345678-0305",-20.7627978,-41.5323939,"RUA JOSE LOUREIRO PRATA","190","CELINA","ALEGRE","ES","29510000","(28)35526242","","","nome_teste","ESCOLASIRENAREZENDE@SEDU.ES.GOV.BR"
1322,1,"EEEFM SIZENANDO PECHINCHA","particular","32036531","12345678-0168",-20.3051173,-40.3697525,"AVENIDA OLINDA","","BARCELONA","SERRA","ES","29166027","(27)33413223","","","nome_teste","ESCOLASIZENANDO@SEDU.ES.GOV.BR"
1323,1,"EEEFM SOBRADINHO","particular","32005954","12345678-0370",-19.1834229,-40.3088626,"RUA PRINCIPAL","","SAO JOSE DO SOBRADINHO","BOA ESPERANCA","ES","29845000","(27)37685057","","","nome_teste","ESCOLASOBRADINHO@SEDU.ES.GOV.BR"
1324,1,"EEEFM TEOFILO PAULINO","particular","32028580","12345678-0017",-20.3675493,-40.6629415,"ALAMEDA DOS PINHAIS","","CENTRO","DOMINGOS MARTINS","ES","29260000","(27)32681824","","","nome_teste","ESCOLATEOFILO@SEDU.ES.GOV.BR"
1325,1,"EEEFM TEOTONIO BRANDAO VILELA","particular","32033958","12345678-0235",-20.2643105,-40.4203022,"RUA 108","","NOVA ROSA DA PENHA II","CARIACICA","ES","29157288","(27)32547079","","","nome_teste","ESCOLATEOTONIO@SEDU.ES.GOV.BR"
1326,1,"EEEFM TERRA VERMELHA","particular","32038461","12345678-0496",-20.4481181,-40.3538799,"RUA E","","TERRA VERMELHA","VILA VELHA","ES","29127995","()32444636","","","nome_teste","ESCOLATERRAVERMELHA@SEDU.ES.GOV.BR"
1327,1,"EEEFM THEODOMIRO RIBEIRO COELHO","particular","32034954","12345678-0236",-19.4151245,-40.5441414,"AVENIDA JOSE","533","NOVO HORIZONTE","CARIACICA","ES","29147760","(27)33961623","","","nome_teste","ESCOLATHEODOMIRO@SEDU.ES.GOV.BR"
1328,1,"EEEFM VERA CRUZ","particular","32008236","12345678-0403",-19.0186736,-40.5368682,"RUA RICARDO AHNERT","387","VILA FARTURA","SAO GABRIEL DA PALHA","ES","29780000","-27","","","nome_teste","ESCOLAVERACRUZ@SEDU.ES.GOV.BR"
1329,1,"EEEFM VICTORIO BRAVIM","particular","32029012","12345678-0243",-20.4163803,-40.6703837,"RUA PROJETADA","","ARAGUAIA","MARECHAL FLORIANO","ES","29258000","-27","","","nome_teste","ESCOLAVICTORIOBRAVIM@SEDU.ES.GOV.BR"
1330,1,"EEEFM VILA NOVA DE COLARES","particular","32134010","12345678-0169",-20.1760728,-40.2171398,"RUA ALFREDO GALENO","","VILA NOVA DE COLARES","SERRA","ES","29172835","-27","","","nome_teste","ESCOLAVILANOVA@SEDU.ES.GOV.BR"
1331,1,"EEEFM WALDEMIRO HEMERLY","particular","32044950","12345678-0118",-20.1602959,-40.1880354,"RUA CAPITAO BLEY","19","CENTRO","RIO NOVO DO SUL","ES","29290000","(28)35331803","","","nome_teste","ESCOLAWALDEMIRO@SEDU.ES.GOV.BR"
1332,1,"EEEFM WALLACE CASTELLO DUTRA","particular","32078722","12345678-0453",-18.7327833,-39.7580377,"AVENIDA ESPERA FELIZ","","GURIRI NORTE","SAO MATEUS","ES","29946600","()37612476","","","nome_teste","ESCOLAWALLACECASTELO@SEDU.ES.GOV.BR"
1333,1,"EEEFM WASHINGTON PINHEIRO MEIRELLES","particular","32059965","12345678-0104",-20.1355985,-40.2529188,"AVENIDA CRISTIANO DIAS LOPES","S/N","CENTRO","ITAPEMIRIM","ES","29330000","(28)35296519","","","nome_teste","ESCOLAWASH@SEDU.ES.GOV.BR"
1334,1,"EEEFM WILSON RESENDE","particular","32052693","12345678-0092",-19.9366645,-40.4034823,"RUA PRAÇA JOSE GAVA","","BURARAMA","CACHOEIRO DE ITAPEMIRIM","ES","29327000","(28)35393000","","","nome_teste","ESCOLAWILSONRESENDE@SEDU.ES.GOV.BR"
1335,1,"EEEFM ZAIRA MANHAES DE ANDRADE","particular","32034997","12345678-0237",-20.2643105,-40.4203022,"RUA QUINZE","","NOVA ROSA DA PENHA I","CARIACICA","ES","29157413","(27)32542583/88462796","","","nome_teste","ESCOLAZAIRA@SEDU.ES.GOV.BR"
1336,1,"EEEFM ZENOBIA LEAO","particular","32043651","12345678-0467",-20.6736703,-40.5031733,"RUA FERNANDO DE ABREU","417","SAO JUDAS TADEU","GUARAPARI","ES","29200490","(27)33611875","","","nome_teste","ESCOLAZENOBIALEAO@SEDU.ES.GOV.BR"
1337,1,"EEEFM ZULEIMA FORTES FARIA","particular","32043660","12345678-0468",-20.6651019,-40.5123168,"AVENIDA ANTONIO GUIMARAES","100","ITAPEBUSSU","GUARAPARI","ES","29210190","(27)33610147","","","nome_teste","ESCOLAZULEIMAFORTES@SEDU.ES.GOV.BR"
1338,1,"EEEFM ZUMBI DOS PALMARES - SERRA","particular","32066333","12345678-0170",-20.2133713,-40.2192155,"AVENIDA HONOLULU","","CIDADE CONTINENTAL-SETOR OCEANIA","SERRA","ES","29163453","(27)33380523","","","nome_teste","ESCOLAZUMBI@SEDU.ES.GOV.BR"
1339,1,"EEEM ANTÔNIO EUGÊNIO ROSA","particular","32093209","12345678-0269",-19.5218823,-40.6575262,"RUA GALDENCIO SOUZA","83","ITAPINA","COLATINA","ES","29714035","(27)37431096","","","nome_teste","ESCOLAANTONIOROSA@SEDU.ES.GOV.BR"
1340,1,"EEEM ANTONIO JOSE PEIXOTO MIGUEL","particular","32074425","12345678-0171",-20.2878090,-40.3793483,"AVENIDA BELO HORIZONTE","","PRAIAMAR","SERRA","ES","29182295","(27)32530011","","","nome_teste","ESCOLAANTONIOJOSE@SEDU.ES.GOV.BR"
1341,1,"EEEM ARNULPHO MATTOS","particular","32041640","12345678-0184",-20.3485303,-40.4058887,"RUA NEREU RAMOS","","REPUBLICA","VITORIA","ES","29070160","(27)33271551","","","nome_teste","ESCOLAARNULPHOMATTOS@SEDU.ES.GOV.BR"
1342,1,"EEEM AUGUSTO RUSCHI","particular","32065027","12345678-0252",-20.3646691,-40.4274631,"RUA GOIAS","","UNIVERSAL","VIANA","ES","29135000","(27)33441155","","","nome_teste","ESCOLAAUGUSTORUSCHI@SEDU.ES.GOV.BR"
1343,1,"EEEM CECILIANO ABEL DE ALMEIDA","particular","32018169","12345678-0454",-18.7158919,-39.8566338,"PRACA MESQUITA NETO","269","CENTRO","SAO MATEUS","ES","29930270","(27)37634780","","","nome_teste","ESCOLACECILIANO@SEDU.ES.GOV.BR"
1344,1,"EEEM CEI ATTILA DE ALMEIDA MIRANDA","particular","32052103","12345678-0094",-20.8467047,-41.1202199,"AVENIDA NOSSA SENHORA DA CONSOLACAO","90","VILA RICA","CACHOEIRO DE ITAPEMIRIM","ES","29301080","(28)35111287","","","nome_teste","CENTROATTILAALMEIDA@SEDU.ES.GOV.BR"
1345,1,"EEEM COLÉGIO ESTADUAL DO ESPIRITO SANTO","particular","32040067","12345678-0185",-20.3182987,-40.3243248,"AVENIDA VITORIA","","FORTE SAO JOAO","VITORIA","ES","29017023","-27","","","nome_teste","COLEGIOESTADUAL@SEDU.ES.GOV.BR"
1346,1,"EEEM DOM DANIEL COMBONI","particular","32006349","12345678-0384",-18.7131736,-40.3990292,"AVENIDA MATEUS TOSCANO","163","MUNICIPAL I","NOVA VENECIA","ES","29830000","(27)37526327","","","nome_teste","ESCOLADANIELCOMBONI@SEDU.ES.GOV.BR"
1347,1,"EEEM DOM JOSE DALVIT","particular","32014597","12345678-0374",-20.3590037,-40.3164564,"RUA LINHARES","14","CENTRO","MONTANHA","ES","29890000","(27)37541707","","","nome_teste","ESCOLAJOSEDALVIT@SEDU.ES.GOV.BR"
1348,1,"EEEM DR SILVA MELLO","particular","32043686","12345678-0469",-20.6728297,-40.5027498,"RUA HORACIO SANTANA","155","PARQUE DA AREIA PRETA","GUARAPARI","ES","29200750","-27","","","nome_teste","ESCOLASILVAMELLO@SEDU.ES.GOV.BR"
1349,1,"EEEM DUNAS DE ITAUNAS","particular","32078650","12345678-0432",-18.4202740,-39.7098815,"RUA EVANDRO RODRIGUES BARCELOS","","ITAUNAS","CONCEICAO DA BARRA","ES","29965990","()37625024","","","nome_teste","ESCOLADUNASDEITAUNAS@SEDU.ES.GOV.BR"
1350,1,"EEEM EMILIO NEMER","particular","32054343","12345678-0098",-20.1256233,-40.1907581,"RUA BERNARDINO MONTEIRO","126","CENTRO","CASTELO","ES","29360000","(28)35423173","","","nome_teste","ESCOLAEMILIONEMER@SEDU.ES.GOV.BR"
1351,1,"EEEM EMIR DE MACEDO GOMES","particular","32022360","12345678-0356",-20.6713199,-40.4972709,"RUA AV. SÃO MATEUS","1679","SHELL","LINHARES","ES","29900630","(27)33711427","","","nome_teste","ESCOLAEMIRMACEDO@SEDU.ES.GOV.BR"
1352,1,"EEEM GODOFREDO POSSI","particular","32077688","12345678-0307",-18.1300852,-40.3655842,"RUA JOSE PUPPIN","S/Nº","BONSUCESSO","APIACA","ES","29450000","()35573056","","","nome_teste","ESCOLAGODOFREDOPOSSI@SEDU.ES.GOV.BR"
1353,1,"EEEM GODOFREDO SCHNEIDER","particular","32038755","12345678-0497",-20.3272544,-40.2941675,"RUA BERNARDO SCHINEIDER","","CENTRO","VILA VELHA","ES","29100170","(27)32291415","","","nome_teste","ESCOLAGODOFREDO@SEDU.ES.GOV.BR"
1354,1,"EEEM GOMES CARDIM","particular","32040288","12345678-0186",-20.3330336,-40.4081500,"RUA WILSON FREITAS","","CENTRO","VITORIA","ES","29016340","-27","","","nome_teste","ESCOLAGOMESCARDIM@SEDU.ES.GOV.BR"
1355,1,"EEEM GUARAPARI","particular","32043830","12345678-0470",-20.6713199,-40.4972709,"RUA JOAQUIM DA SILVA LIMA","58","CENTRO","GUARAPARI","ES","29200260","-27","","","nome_teste","ESCOLAGUARAPARI@SEDU.ES.GOV.BR"
1356,1,"EEEM GUILHERME MILANEZE","particular","32078170","12345678-0121",-20.6740020,-41.0098203,"RUA CAETANO VANINI","","SAO JOSE DE FRUTEIRAS","VARGEM ALTA","ES","29295000","-28","","","nome_teste","ESCOLAGUILHERME@SEDU.ES.GOV.BR"
1357,1,"EEEM IRMA DULCE LOPES PONTE","particular","32065051","12345678-0251",-20.3424796,-40.4257554,"RUA ESPIRITO SANTO","","MARCILIO DE NORONHA","VIANA","ES","29135000","(27)33446097","","","nome_teste","ESCOLAIRMADULCE@SEDU.ES.GOV.BR"
1358,1,"EEEM IRMA MARIA HORTA","particular","32040334","12345678-0187",-20.3593327,-40.3739627,"RUA ALEIXO NETTO","1060","PRAIA DO CANTO","VITORIA","ES","29055260","(27)33221039","","","nome_teste","ESCOLAMARIAHORTA@SEDU.ES.GOV.BR"
1359,1,"EEEM ITABAIANA","particular","32015380","12345678-0380",-20.3613409,-40.3075712,"RUA ITABUNAS","25","CENTRO","MUCURICI","ES","29884000","(27)37513298","","","nome_teste","ESCOLAITABAIANA@SEDU.ES.GOV.BR"
1360,1,"EEEM ITAMIRA","particular","32102011","12345678-0398",-18.2562322,-40.5175333,"PRACA GETULIO VARGAS","","CENTRO","PONTO BELO","ES","29885000","()","","","nome_teste","email@email.com"
1361,1,"EEEM JUDITH VIANA GUEDES","particular","32079222","12345678-0326",-20.4656769,-41.4160225,"RUA SEBASTIAO COSTA","27","ITAICI","MUNIZ FREIRE","ES","29388000","(28)35446002","","","nome_teste","ESCOLAJUDITHVIANA@SEDU.ES.GOV.BR"
1362,1,"EEEM MANOEL DUARTE DA CUNHA","particular","32017391","12345678-0442",-18.3009309,-39.9556123,"AVENIDA ANTONIO GUEDES ALCOFORADO","194","COLINA","PEDRO CANARIO","ES","29970000","()37641615","","","nome_teste","ESCOLAMANOELDUARTE@SEDU.ES.GOV.BR"
1363,1,"EEEM MARIA DALVA GAMA BERNABÉ","particular","32079435","12345678-0385",-20.3495554,-40.3529215,"RUA DUARTE","431","RUBIA","NOVA VENECIA","ES","29830000","-27","","","nome_teste","ESCOLAMARIADALVA@SEDU.ES.GOV.BR"
1364,1,"EEEM MARIA HELENA STEIN MERLO","particular","32092806","12345678-0257",-19.5097867,-41.0165586,"RUA VILA KM 14 DO MUTUM","","ZONA RURAL","BAIXO GUANDU","ES","29730000","-27","","","nome_teste","ESCOLAMARIAHELENA@SEDU.ES.GOV.BR"
1365,1,"EEEM MARIO GURGEL","particular","32079230","12345678-0498",-20.3477821,-40.2949528,"AVENIDA MARROCOS","","JABAETE","VILA VELHA","ES","29126747","(27)32446765","","","nome_teste","ESCOLAMARIOGURGEL@SEDU.ES.GOV.BR"
1366,1,"EEEM MENINO JESUS","particular","32078536","12345678-0327",-20.4006175,-41.4340195,"RUA FRANCELINO GOULART","76","MENINO JESUS","MUNIZ FREIRE","ES","29380000","(28)35444024","","","nome_teste","ESCOLAMENINOJESUS@SEDU.ES.GOV.BR"
1367,1,"EEEM MISAEL PINTO NETTO","particular","32073330","12345678-0336",-19.8201552,-40.2743746,"RUA ARISTIDES GUARANA","38","CENTRO","ARACRUZ","ES","29190050","-27","","","nome_teste","ESCOLAMISAELPINTO@SEDU.ES.GOV.BR"
1368,1,"EEEM MONSENHOR MIGUEL DE SANCTIS","particular","32047002","12345678-0313",-18.6981685,-40.3945281,"RODOVIA PREF NORIVAL COUZI - KM 96","KM 96","MORADA DAS PALMEIRAS","GUACUI","ES","29560000","(28)35532891","","","nome_teste","ESCOLAMMSANCTIS@SEDU.ES.GOV.BR"
1369,1,"EEEM NOSSA SENHORA DE LOURDES","particular","32015631","12345678-0394",-18.4145487,-40.2175190,"RUA EURICO REZENDE","320","CENTRO","PINHEIROS","ES","29980000","(27)37651918","","","nome_teste","ESCOLALOURDES@SEDU.ES.GOV.BR"
1370,1,"EEEM ORMANDA GONCALVES","particular","32039867","12345678-0499",-20.3495554,-40.3529215,"RUA THADEU RAUTA","","COBILANDIA","VILA VELHA","ES","29111065","(27)33265200","","","nome_teste","ESCOLAORMANDA@SEDU.ES.GOV.BR"
1371,1,"EEEM PEDRO PAULO GROBERIO","particular","32016700","12345678-0436",-18.9055808,-40.0759445,"AVENIDA 9 DE AGOSTO","","CENTRO","JAGUARE","ES","29950000","(27)37691599","","","nome_teste","ESCOLAPEDROPAULO@SEDU.ES.GOV.BR"
1372,1,"EEEM PROF FERNANDO DUARTE RABELO - VITORIA","particular","32040784","12345678-0188",-20.3100660,-40.2946020,"PRACA CRISTOVAO JAQUES","260","SANTA HELENA","VITORIA","ES","29055070","(27)32359269/33450391","","","nome_teste","ESCOLADUARTERABELO@SEDU.ES.GOV.BR"
1373,1,"EEEM PROF JOAQUIM FONSECA","particular","32016158","12345678-0433",-18.5887887,-39.7365721,"RUA RUA 27 DE SETEMBRO","31","CENTRO","CONCEICAO DA BARRA","ES","29960000","()37621314","","","nome_teste","ESCOLAJOAQUIMFONSECA@SEDU.ES.GOV.BR"
1374,1,"EEEM PROF MARIA CANDIDO KNEIPP","particular","32079214","12345678-0328",-20.4656769,-41.4160225,"RUA MARIA ASCENSAO SOARES","134","VIEIRA MACHADO","MUNIZ FREIRE","ES","29383000","(28)35448000","","","nome_teste","ESCOLACANDIDOKNEIP@SEDU.ES.GOV.BR"
1375,1,"EEEM PROF RENATO JOSE DA COSTA PACHECO","particular","32079338","12345678-0189",-20.3624726,-40.3677771,"AVENIDA CHARLES BITRAN","251","JARDIM CAMBURI","VITORIA","ES","29092270","(27)33175315","","","nome_teste","ESCOLARENATOPACHECO@SEDU.ES.GOV.BR"
1376,1,"EEEM PROFESSOR AGENOR RORIS","particular","32062648","12345678-0500",-20.3583075,-40.3105794,"AVENIDA JOAO MENDES","","SANTA MONICA","VILA VELHA","ES","29105200","-27","","","nome_teste","ESCOLAAGENORRORIS@SEDU.ES.GOV.BR"
1377,1,"EEEM RODRIGO CESAR PROESCHOLDT","particular","32080700","12345678-0258",-20.2333886,-41.5058937,"RUA JOÃO JULHO CARDOSO","","ALTO MUTUM PRETO","BAIXO GUANDU","ES","29737990","()","","","nome_teste","email@email.com"
1378,1,"EEEM SANTA CRUZ","particular","32078609","12345678-0319",-20.3213405,-41.6959826,"RUA DIONISIO JOAO AMANSO","","CENTRO","IRUPI","ES","29398000","(28)35483025","","","nome_teste","ESCOLASANTACRUZ@SEDU.ES.GOV.BR"
1379,1,"EEEM SANTINA MOROSINI CUPERTINO","particular","32078528","12345678-0357",-20.8416467,-40.7265783,"RUA ARLINDO GAMA","","CANIVETE","LINHARES","ES","29909260","()33738286","","","nome_teste","ESCOLASANTINA@SEDU.ES.GOV.BR"
1380,1,"EEEM SANTISSIMA TRINDADE","particular","32078587","12345678-0322",-18.6095681,-40.6093729,"AVENIDA OTACILIO SEVERINO DA SILVA","","SANTISSIMA TRINDADE","IUNA","ES","29393000","()35457005","","","nome_teste","ESCOLATRINDADE@SEDU.ES.GOV.BR"
1381,1,"EEEM SÃO FRANCISCO","particular","32078579","12345678-0007",-20.0783294,-41.126449,"RUA PEDRO RIBEIRO","177","SAO FRANCISCO","AFONSO CLAUDIO","ES","29600000","()","","","nome_teste","ESCOLASAOFRANCISCO@SEDU.ES.GOV.BR"
1382,1,"EEEM SAO JOAO DO PRINCIPE","particular","32078595","12345678-0323",-20.3477971,-41.5343721,"RUA SEBASTIAO CORREA BRAGA","0","IUNA","IUNA","ES","29392000","()35455022","","","nome_teste","ESCOLAJOAODOPRINCIPE@SEDU.ES.GOV.BR"
1383,1,"EEEM SOBREIRO","particular","32078315","12345678-0021",-20.3238182,-41.1351878,"RUA PRINCIPAL","","SOBREIRO","LARANJA DA TERRA","ES","29619000","(27)37364024","","","nome_teste","ESCOLASOBREIRO@SEDU.ES.GOV.BR"
